{"type": "FeatureCollection", "name": "municipios_espaillat", "crs": {"type": "name", "properties": {"name": "urn:ogc:def:crs:OGC:1.3:CRS84"}}, "features": [{"type": "Feature", "properties": {"COD_PROV": "09", "COD_MUN": "0901", "MUNICIPIO": "Moca", "N_DM": 8, "AREA_KM2": 339.93}, "geometry": {"type": "Polygon", "coordinates": [[[-70.610679, 19.377264], [-70.610082, 19.377599], [-70.609791, 19.378017], [-70.609573, 19.378611], [-70.609434, 19.380491], [-70.608246, 19.381615], [-70.608193, 19.382704], [-70.60756, 19.383334], [-70.607046, 19.384628], [-70.606757, 19.384977], [-70.606691, 19.385527], [-70.60615, 19.386504], [-70.605828, 19.387459], [-70.604776, 19.387889], [-70.603991, 19.388899], [-70.602763, 19.389494], [-70.601969, 19.389418], [-70.601442, 19.389673], [-70.600369, 19.388013], [-70.59931, 19.388021], [-70.597112, 19.388708], [-70.596326, 19.389467], [-70.595543, 19.390563], [-70.595019, 19.390985], [-70.594489, 19.390907], [-70.594747, 19.390235], [-70.59465, 19.389484], [-70.592528, 19.388749], [-70.592522, 19.38808], [-70.592351, 19.387685], [-70.591809, 19.387332], [-70.591536, 19.386664], [-70.590914, 19.386169], [-70.590066, 19.385979], [-70.589406, 19.386109], [-70.58881, 19.38605], [-70.588537, 19.385363], [-70.586746, 19.384377], [-70.586284, 19.384693], [-70.585433, 19.385579], [-70.584236, 19.385699], [-70.583714, 19.385912], [-70.583295, 19.386464], [-70.582645, 19.38703], [-70.582015, 19.386941], [-70.581793, 19.386687], [-70.581767, 19.386128], [-70.582195, 19.385534], [-70.582019, 19.3855], [-70.579884, 19.386004], [-70.579572, 19.386138], [-70.580021, 19.386038], [-70.579428, 19.38636], [-70.579615, 19.386768], [-70.579555, 19.387479], [-70.579416, 19.387608], [-70.578991, 19.387533], [-70.578825, 19.38793], [-70.579021, 19.388134], [-70.579309, 19.388173], [-70.57951, 19.388104], [-70.579754, 19.387708], [-70.580069, 19.387642], [-70.580295, 19.38767], [-70.580503, 19.387897], [-70.580382, 19.389145], [-70.580751, 19.389555], [-70.580353, 19.389572], [-70.580274, 19.389676], [-70.580336, 19.390747], [-70.580596, 19.390778], [-70.581519, 19.390098], [-70.582171, 19.38994], [-70.582488, 19.389708], [-70.583176, 19.390239], [-70.583569, 19.389335], [-70.583796, 19.389209], [-70.584638, 19.38967], [-70.584495, 19.390103], [-70.584698, 19.390554], [-70.584333, 19.390843], [-70.584175, 19.391253], [-70.583603, 19.39121], [-70.583386, 19.39143], [-70.583546, 19.393321], [-70.583817, 19.393444], [-70.584276, 19.393369], [-70.584315, 19.392611], [-70.585068, 19.392316], [-70.585208, 19.392142], [-70.585112, 19.391963], [-70.584689, 19.391922], [-70.584644, 19.391638], [-70.585215, 19.391643], [-70.585299, 19.39121], [-70.585624, 19.391002], [-70.58577, 19.39131], [-70.586354, 19.391739], [-70.586314, 19.392139], [-70.586215, 19.392292], [-70.585704, 19.392535], [-70.585675, 19.392837], [-70.586182, 19.392918], [-70.586652, 19.392825], [-70.586984, 19.392994], [-70.58697, 19.393242], [-70.586327, 19.393908], [-70.585714, 19.394026], [-70.585393, 19.394414], [-70.585196, 19.394745], [-70.58517, 19.395416], [-70.5853, 19.395528], [-70.586103, 19.395575], [-70.586322, 19.395736], [-70.586476, 19.39716], [-70.587341, 19.397666], [-70.587621, 19.398232], [-70.58764, 19.398419], [-70.587228, 19.39857], [-70.587216, 19.398752], [-70.587608, 19.39887], [-70.587876, 19.398444], [-70.588108, 19.39841], [-70.588379, 19.398574], [-70.588436, 19.398813], [-70.587762, 19.399473], [-70.587888, 19.400178], [-70.587549, 19.400368], [-70.58713, 19.399726], [-70.586666, 19.399665], [-70.586419, 19.399297], [-70.586182, 19.399275], [-70.586009, 19.400197], [-70.586209, 19.40039], [-70.58664, 19.40054], [-70.586923, 19.401176], [-70.586683, 19.401329], [-70.586253, 19.401035], [-70.586071, 19.401012], [-70.585928, 19.401129], [-70.585962, 19.401743], [-70.585581, 19.402576], [-70.585598, 19.402783], [-70.586071, 19.402685], [-70.586713, 19.403368], [-70.586757, 19.403893], [-70.586563, 19.404488], [-70.587295, 19.405437], [-70.5876, 19.405396], [-70.587834, 19.404471], [-70.588243, 19.404193], [-70.588508, 19.404221], [-70.588357, 19.404733], [-70.58856, 19.405213], [-70.588239, 19.406139], [-70.587964, 19.406361], [-70.587422, 19.40635], [-70.587283, 19.407143], [-70.588099, 19.407795], [-70.588307, 19.408499], [-70.588289, 19.409238], [-70.588454, 19.409439], [-70.58866, 19.409413], [-70.588816, 19.408967], [-70.589278, 19.409415], [-70.589916, 19.409318], [-70.59012, 19.409436], [-70.590309, 19.40996], [-70.590637, 19.410266], [-70.589833, 19.410185], [-70.589476, 19.4103], [-70.589401, 19.410434], [-70.589757, 19.411053], [-70.589968, 19.411214], [-70.590159, 19.411258], [-70.590358, 19.411125], [-70.590514, 19.411241], [-70.590083, 19.412177], [-70.59017, 19.412798], [-70.590075, 19.413742], [-70.590385, 19.414082], [-70.590418, 19.414342], [-70.590895, 19.414139], [-70.591134, 19.414313], [-70.591389, 19.413743], [-70.591515, 19.413781], [-70.591755, 19.414258], [-70.591669, 19.414475], [-70.590814, 19.41499], [-70.590813, 19.415226], [-70.591442, 19.41557], [-70.591506, 19.415755], [-70.591352, 19.416468], [-70.591121, 19.416691], [-70.591139, 19.417047], [-70.591651, 19.417098], [-70.592883, 19.416508], [-70.593335, 19.416503], [-70.593498, 19.416633], [-70.593405, 19.417202], [-70.593215, 19.417355], [-70.592756, 19.417437], [-70.59277, 19.418014], [-70.592151, 19.4178], [-70.591645, 19.417835], [-70.591539, 19.418109], [-70.59106, 19.418217], [-70.591014, 19.418701], [-70.591382, 19.418849], [-70.591786, 19.418524], [-70.592224, 19.418409], [-70.592441, 19.418483], [-70.592555, 19.418873], [-70.592281, 19.419089], [-70.592231, 19.419557], [-70.592313, 19.419705], [-70.592541, 19.41977], [-70.593186, 19.419322], [-70.593444, 19.418572], [-70.593727, 19.418611], [-70.594019, 19.418978], [-70.593807, 19.419371], [-70.594189, 19.419863], [-70.59401, 19.420075], [-70.592938, 19.420015], [-70.592463, 19.420246], [-70.592343, 19.420195], [-70.592297, 19.419949], [-70.591838, 19.419942], [-70.591275, 19.420967], [-70.590573, 19.421155], [-70.590253, 19.421479], [-70.589894, 19.42158], [-70.589908, 19.421706], [-70.590332, 19.42195], [-70.590853, 19.422056], [-70.591335, 19.422612], [-70.592459, 19.42338], [-70.592478, 19.423924], [-70.592272, 19.424371], [-70.591749, 19.424608], [-70.591352, 19.424903], [-70.591415, 19.425465], [-70.591325, 19.425695], [-70.590568, 19.425782], [-70.590437, 19.425884], [-70.59022, 19.427188], [-70.59028, 19.427461], [-70.590875, 19.427625], [-70.591658, 19.427294], [-70.591997, 19.427739], [-70.592051, 19.428246], [-70.592386, 19.428451], [-70.592725, 19.428457], [-70.593024, 19.428154], [-70.593416, 19.428194], [-70.593359, 19.42855], [-70.593495, 19.428817], [-70.594199, 19.42919], [-70.594049, 19.429385], [-70.593619, 19.429507], [-70.593585, 19.42971], [-70.594212, 19.430152], [-70.594126, 19.430374], [-70.593895, 19.430477], [-70.593236, 19.430459], [-70.592939, 19.430984], [-70.592486, 19.431344], [-70.592238, 19.431824], [-70.59241, 19.432367], [-70.592313, 19.432743], [-70.592547, 19.433249], [-70.592618, 19.434044], [-70.592054, 19.435183], [-70.591931, 19.43524], [-70.591732, 19.43513], [-70.591421, 19.435336], [-70.591614, 19.435844], [-70.592156, 19.436258], [-70.591842, 19.436584], [-70.591759, 19.436838], [-70.591465, 19.436968], [-70.591618, 19.437673], [-70.591267, 19.437845], [-70.590793, 19.437681], [-70.590155, 19.437843], [-70.590138, 19.438056], [-70.590316, 19.438392], [-70.590259, 19.43853], [-70.590079, 19.438715], [-70.589513, 19.438902], [-70.589263, 19.439281], [-70.589164, 19.439845], [-70.589303, 19.440215], [-70.589361, 19.441239], [-70.588772, 19.442081], [-70.587899, 19.442651], [-70.587685, 19.442907], [-70.586919, 19.442893], [-70.586681, 19.442991], [-70.586135, 19.444097], [-70.585599, 19.443779], [-70.58562, 19.444385], [-70.585511, 19.444615], [-70.58509, 19.444208], [-70.584708, 19.444181], [-70.584546, 19.444261], [-70.584582, 19.444769], [-70.5844, 19.444893], [-70.583627, 19.444998], [-70.582936, 19.444781], [-70.582561, 19.445088], [-70.5826, 19.445583], [-70.58303, 19.44583], [-70.583085, 19.446036], [-70.58206, 19.4468], [-70.581358, 19.448913], [-70.581603, 19.449033], [-70.58174, 19.449254], [-70.581372, 19.449567], [-70.581681, 19.449802], [-70.581582, 19.450203], [-70.581724, 19.450291], [-70.582026, 19.450112], [-70.582226, 19.450238], [-70.58216, 19.450447], [-70.581672, 19.450864], [-70.581612, 19.451089], [-70.581629, 19.451445], [-70.582094, 19.452692], [-70.582013, 19.454525], [-70.581844, 19.454783], [-70.581344, 19.454729], [-70.581046, 19.455066], [-70.580823, 19.455134], [-70.580353, 19.454738], [-70.579935, 19.454687], [-70.579854, 19.454901], [-70.580006, 19.45535], [-70.579844, 19.456295], [-70.579646, 19.456406], [-70.579091, 19.456274], [-70.578877, 19.456353], [-70.579765, 19.457638], [-70.579912, 19.457774], [-70.580258, 19.457812], [-70.580343, 19.458094], [-70.580125, 19.458484], [-70.579721, 19.458251], [-70.579423, 19.45837], [-70.579365, 19.458676], [-70.579653, 19.459346], [-70.57937, 19.459723], [-70.57924, 19.460505], [-70.580245, 19.461357], [-70.580416, 19.461814], [-70.579957, 19.462174], [-70.579626, 19.46218], [-70.579325, 19.461969], [-70.579074, 19.462016], [-70.578882, 19.462568], [-70.578996, 19.462943], [-70.578834, 19.463362], [-70.579463, 19.463879], [-70.580243, 19.464235], [-70.580318, 19.464377], [-70.58016, 19.464636], [-70.579079, 19.464727], [-70.578812, 19.46498], [-70.579115, 19.465651], [-70.580094, 19.465695], [-70.580266, 19.466028], [-70.580229, 19.466265], [-70.579567, 19.467014], [-70.579444, 19.467804], [-70.579525, 19.468635], [-70.580527, 19.470924], [-70.581748, 19.471859], [-70.581818, 19.472199], [-70.581694, 19.472672], [-70.581827, 19.472745], [-70.582355, 19.472679], [-70.582595, 19.472912], [-70.582922, 19.473627], [-70.582446, 19.474343], [-70.582373, 19.474668], [-70.582943, 19.474607], [-70.583172, 19.474753], [-70.583225, 19.475214], [-70.583422, 19.475558], [-70.583412, 19.476036], [-70.583815, 19.476854], [-70.583372, 19.477119], [-70.58347, 19.477463], [-70.583434, 19.478067], [-70.583197, 19.478483], [-70.583361, 19.478859], [-70.583175, 19.479602], [-70.582756, 19.480542], [-70.583116, 19.481161], [-70.583016, 19.481616], [-70.581906, 19.482884], [-70.58198, 19.483131], [-70.582579, 19.483631], [-70.582613, 19.484134], [-70.581807, 19.484408], [-70.581269, 19.484911], [-70.580949, 19.485025], [-70.580642, 19.484874], [-70.580003, 19.48415], [-70.579594, 19.484104], [-70.579383, 19.484405], [-70.579272, 19.485043], [-70.578851, 19.485973], [-70.578228, 19.486597], [-70.577715, 19.486717], [-70.577369, 19.486473], [-70.577347, 19.485322], [-70.577613, 19.484684], [-70.577879, 19.484433], [-70.57792, 19.484146], [-70.5776, 19.483611], [-70.577294, 19.483578], [-70.576052, 19.484117], [-70.575894, 19.484691], [-70.575725, 19.484896], [-70.57507, 19.48483], [-70.574669, 19.485019], [-70.574404, 19.485311], [-70.573404, 19.485133], [-70.572959, 19.485207], [-70.572558, 19.485441], [-70.572405, 19.485817], [-70.572503, 19.486034], [-70.573308, 19.486492], [-70.573574, 19.486928], [-70.573556, 19.487272], [-70.573242, 19.48747], [-70.572354, 19.487511], [-70.571386, 19.489034], [-70.571009, 19.489059], [-70.57082, 19.48883], [-70.570741, 19.487325], [-70.570647, 19.487208], [-70.570264, 19.487145], [-70.569329, 19.48771], [-70.56887, 19.488741], [-70.568168, 19.489823], [-70.56785, 19.489905], [-70.567489, 19.489803], [-70.567166, 19.490051], [-70.566478, 19.489973], [-70.566231, 19.490075], [-70.565957, 19.490259], [-70.565421, 19.491254], [-70.565082, 19.491253], [-70.564814, 19.491041], [-70.564839, 19.490401], [-70.564676, 19.490157], [-70.564323, 19.490085], [-70.564093, 19.490189], [-70.563713, 19.491146], [-70.563647, 19.492062], [-70.564096, 19.492911], [-70.564042, 19.493085], [-70.563496, 19.493143], [-70.562968, 19.493415], [-70.561935, 19.492899], [-70.560914, 19.492744], [-70.560484, 19.492886], [-70.56052, 19.493234], [-70.559856, 19.493408], [-70.558854, 19.493039], [-70.558762, 19.493138], [-70.558791, 19.493482], [-70.55852, 19.494056], [-70.558181, 19.494519], [-70.557889, 19.494638], [-70.557659, 19.494513], [-70.557231, 19.493789], [-70.556844, 19.493659], [-70.556682, 19.493678], [-70.556394, 19.494181], [-70.556195, 19.49427], [-70.555553, 19.494027], [-70.555185, 19.494403], [-70.555018, 19.494425], [-70.554284, 19.494308], [-70.553982, 19.494118], [-70.55309, 19.494465], [-70.552884, 19.494384], [-70.552531, 19.49392], [-70.551869, 19.493689], [-70.551018, 19.493672], [-70.550808, 19.493766], [-70.550408, 19.494375], [-70.550304, 19.49564], [-70.549556, 19.496306], [-70.549214, 19.496914], [-70.549046, 19.49752], [-70.549052, 19.498125], [-70.54865, 19.498569], [-70.548371, 19.499668], [-70.548621, 19.501592], [-70.549096, 19.502797], [-70.54918, 19.505436], [-70.54901, 19.505877], [-70.548609, 19.506375], [-70.547396, 19.506665], [-70.547637, 19.507813], [-70.547643, 19.508473], [-70.547303, 19.509245], [-70.546616, 19.510242], [-70.546637, 19.512385], [-70.545585, 19.517091], [-70.544404, 19.516044], [-70.544023, 19.516102], [-70.543559, 19.515964], [-70.539976, 19.513724], [-70.537028, 19.512205], [-70.536166, 19.512086], [-70.535974, 19.512399], [-70.537425, 19.517021], [-70.537994, 19.51816], [-70.539131, 19.519879], [-70.539658, 19.520997], [-70.540016, 19.523556], [-70.539931, 19.524455], [-70.539615, 19.524876], [-70.538961, 19.525396], [-70.537484, 19.525935], [-70.536052, 19.526214], [-70.535123, 19.526633], [-70.534451, 19.527233], [-70.534153, 19.528073], [-70.534321, 19.528991], [-70.534786, 19.53027], [-70.53489, 19.53157], [-70.534532, 19.533147], [-70.533856, 19.534526], [-70.533625, 19.535644], [-70.533898, 19.537945], [-70.534466, 19.539564], [-70.535371, 19.541422], [-70.536447, 19.542602], [-70.536468, 19.54322], [-70.536658, 19.543822], [-70.536446, 19.544601], [-70.536067, 19.54532], [-70.534927, 19.546522], [-70.534464, 19.548279], [-70.534611, 19.549357], [-70.534483, 19.550736], [-70.534968, 19.553955], [-70.535641, 19.556951], [-70.536441, 19.55977], [-70.536652, 19.56113], [-70.536609, 19.562508], [-70.535744, 19.564706], [-70.535111, 19.566744], [-70.534605, 19.567905], [-70.534056, 19.568624], [-70.532854, 19.569562], [-70.531188, 19.57024], [-70.528699, 19.571899], [-70.526611, 19.572599], [-70.524966, 19.572897], [-70.523872, 19.573355], [-70.522668, 19.574936], [-70.521739, 19.576394], [-70.521148, 19.577054], [-70.520559, 19.577492], [-70.519462, 19.577694], [-70.51828, 19.578451], [-70.516307, 19.57927], [-70.51558, 19.579684], [-70.51477, 19.578017], [-70.515012, 19.575589], [-70.515186, 19.575253], [-70.515886, 19.574661], [-70.516414, 19.574488], [-70.516585, 19.574073], [-70.51614, 19.573487], [-70.515519, 19.573074], [-70.514898, 19.572829], [-70.514099, 19.57225], [-70.513474, 19.571585], [-70.513291, 19.571], [-70.512139, 19.570342], [-70.511021, 19.569512], [-70.510537, 19.568935], [-70.50992, 19.569022], [-70.508943, 19.56836], [-70.508846, 19.568111], [-70.506287, 19.568383], [-70.504787, 19.567386], [-70.504714, 19.567098], [-70.505658, 19.566263], [-70.506188, 19.565246], [-70.505886, 19.564843], [-70.504992, 19.564841], [-70.504956, 19.56467], [-70.505452, 19.564325], [-70.505826, 19.563082], [-70.505271, 19.562427], [-70.505295, 19.562185], [-70.505597, 19.562034], [-70.505873, 19.561645], [-70.505632, 19.561166], [-70.505029, 19.560741], [-70.50492, 19.559116], [-70.504508, 19.558609], [-70.50446, 19.557945], [-70.504738, 19.557076], [-70.505851, 19.555519], [-70.506504, 19.554064], [-70.506758, 19.552923], [-70.50678, 19.551907], [-70.506465, 19.551486], [-70.504652, 19.549864], [-70.503724, 19.549326], [-70.500625, 19.548723], [-70.49921, 19.548155], [-70.49737, 19.548674], [-70.496752, 19.549456], [-70.495713, 19.549457], [-70.49493, 19.548545], [-70.494666, 19.547997], [-70.49337, 19.547457], [-70.492972, 19.546296], [-70.491721, 19.543739], [-70.489851, 19.543753], [-70.488433, 19.544009], [-70.48785, 19.543831], [-70.48784, 19.542788], [-70.487578, 19.542303], [-70.486916, 19.541927], [-70.487464, 19.541089], [-70.488036, 19.538315], [-70.488814, 19.536295], [-70.49194, 19.533547], [-70.492222, 19.533543], [-70.492707, 19.533154], [-70.493532, 19.533061], [-70.494119, 19.53251], [-70.494378, 19.53241], [-70.494582, 19.53218], [-70.494794, 19.531165], [-70.494537, 19.529552], [-70.493465, 19.528452], [-70.493081, 19.527673], [-70.49309, 19.527168], [-70.492766, 19.526756], [-70.49149, 19.525959], [-70.490438, 19.524809], [-70.490164, 19.524962], [-70.490461, 19.525655], [-70.490473, 19.525791], [-70.490302, 19.525924], [-70.49005, 19.525976], [-70.489247, 19.525694], [-70.488417, 19.526006], [-70.488171, 19.526545], [-70.48743, 19.526199], [-70.486798, 19.526187], [-70.485967, 19.525954], [-70.485686, 19.526435], [-70.485509, 19.52638], [-70.486744, 19.527247], [-70.486662, 19.528811], [-70.48599, 19.531796], [-70.485276, 19.53215], [-70.484923, 19.532038], [-70.48456, 19.532139], [-70.484152, 19.532472], [-70.483868, 19.532474], [-70.483582, 19.532387], [-70.483482, 19.532207], [-70.482979, 19.532092], [-70.482286, 19.532277], [-70.479975, 19.531578], [-70.479641, 19.531682], [-70.479254, 19.532105], [-70.478087, 19.532789], [-70.476734, 19.533188], [-70.476117, 19.53385], [-70.475915, 19.534373], [-70.475853, 19.53516], [-70.475859, 19.535814], [-70.476149, 19.537318], [-70.476085, 19.537908], [-70.475475, 19.539157], [-70.474599, 19.541521], [-70.474468, 19.542309], [-70.474484, 19.544077], [-70.474629, 19.544861], [-70.474568, 19.545713], [-70.474233, 19.546897], [-70.474308, 19.547484], [-70.474864, 19.547937], [-70.475076, 19.548394], [-70.474874, 19.548985], [-70.474464, 19.549512], [-70.473776, 19.549978], [-70.47296, 19.551293], [-70.47276, 19.551882], [-70.472835, 19.552603], [-70.473671, 19.553448], [-70.473682, 19.554692], [-70.473065, 19.555261], [-70.47224, 19.555621], [-70.471547, 19.55543], [-70.470857, 19.555436], [-70.468995, 19.554831], [-70.468559, 19.554794], [-70.468029, 19.555982], [-70.467007, 19.557562], [-70.466152, 19.558014], [-70.465822, 19.557782], [-70.465175, 19.557785], [-70.464161, 19.557451], [-70.463368, 19.556531], [-70.462131, 19.556848], [-70.461445, 19.556823], [-70.461183, 19.556701], [-70.461082, 19.556392], [-70.461243, 19.556144], [-70.461763, 19.555798], [-70.461915, 19.555269], [-70.461527, 19.555058], [-70.461009, 19.555124], [-70.460649, 19.555437], [-70.460031, 19.555596], [-70.459507, 19.555477], [-70.459244, 19.555262], [-70.459401, 19.554549], [-70.461013, 19.553909], [-70.460601, 19.553673], [-70.459915, 19.553586], [-70.458768, 19.553162], [-70.458633, 19.552914], [-70.457653, 19.552397], [-70.4569, 19.55231], [-70.456224, 19.552653], [-70.456286, 19.553058], [-70.456028, 19.55337], [-70.45521, 19.553191], [-70.454522, 19.552887], [-70.454089, 19.551902], [-70.453374, 19.551844], [-70.45308, 19.552248], [-70.451817, 19.553342], [-70.450546, 19.553661], [-70.449882, 19.552029], [-70.449757, 19.552049], [-70.449465, 19.554251], [-70.449067, 19.554875], [-70.448011, 19.555263], [-70.44753, 19.55493], [-70.447103, 19.555304], [-70.446892, 19.555671], [-70.447122, 19.556443], [-70.448441, 19.557396], [-70.448612, 19.557718], [-70.448505, 19.558118], [-70.448224, 19.558376], [-70.447834, 19.558492], [-70.445809, 19.558605], [-70.445157, 19.558931], [-70.443654, 19.558994], [-70.442922, 19.559436], [-70.44265, 19.560137], [-70.442565, 19.560924], [-70.442721, 19.563075], [-70.441512, 19.563275], [-70.440468, 19.563936], [-70.44012, 19.564591], [-70.439844, 19.565739], [-70.439438, 19.566422], [-70.438882, 19.566975], [-70.438121, 19.567223], [-70.43674, 19.567433], [-70.435806, 19.567353], [-70.435168, 19.56823], [-70.434529, 19.568847], [-70.434169, 19.56981], [-70.434177, 19.570683], [-70.434643, 19.571378], [-70.435387, 19.572157], [-70.435808, 19.572978], [-70.435762, 19.573513], [-70.434945, 19.57388], [-70.433116, 19.573811], [-70.432534, 19.574171], [-70.432095, 19.575374], [-70.432216, 19.575431], [-70.432567, 19.576196], [-70.432301, 19.577334], [-70.432314, 19.578817], [-70.43269, 19.579513], [-70.433971, 19.580341], [-70.433375, 19.582432], [-70.432256, 19.582749], [-70.431589, 19.583536], [-70.431453, 19.583991], [-70.431653, 19.584418], [-70.432049, 19.584735], [-70.433435, 19.585126], [-70.434403, 19.585874], [-70.434042, 19.586751], [-70.434057, 19.588409], [-70.433884, 19.589719], [-70.433893, 19.590678], [-70.434293, 19.591395], [-70.434576, 19.591622], [-70.434564, 19.591812], [-70.435005, 19.592304], [-70.434959, 19.593125], [-70.434751, 19.594161], [-70.43407, 19.594693], [-70.433588, 19.595501], [-70.43359, 19.595781], [-70.433795, 19.596766], [-70.434291, 19.597196], [-70.435299, 19.596973], [-70.435849, 19.596411], [-70.436404, 19.596407], [-70.436764, 19.596559], [-70.43693, 19.596774], [-70.437372, 19.598446], [-70.436522, 19.598603], [-70.436004, 19.598979], [-70.436208, 19.600121], [-70.436865, 19.600581], [-70.436804, 19.600984], [-70.435894, 19.60127], [-70.435732, 19.601581], [-70.435965, 19.602197], [-70.435841, 19.602695], [-70.437227, 19.604539], [-70.438056, 19.605925], [-70.437996, 19.606513], [-70.437606, 19.606733], [-70.436303, 19.607053], [-70.435786, 19.607769], [-70.435553, 19.607493], [-70.434905, 19.60756], [-70.434681, 19.608179], [-70.43505, 19.609107], [-70.435377, 19.609289], [-70.436453, 19.60928], [-70.437049, 19.610234], [-70.437054, 19.610638], [-70.437269, 19.610838], [-70.437346, 19.611072], [-70.437249, 19.611646], [-70.436692, 19.611849], [-70.43509, 19.611575], [-70.433673, 19.61096], [-70.432061, 19.611159], [-70.431204, 19.611115], [-70.429535, 19.610549], [-70.42817, 19.609934], [-70.427412, 19.60989], [-70.4267, 19.609082], [-70.426246, 19.609035], [-70.425944, 19.609132], [-70.425639, 19.608799], [-70.425529, 19.607604], [-70.425623, 19.606841], [-70.425117, 19.606554], [-70.424611, 19.606559], [-70.423714, 19.607612], [-70.423113, 19.608093], [-70.422965, 19.608668], [-70.422663, 19.608765], [-70.421902, 19.608147], [-70.422093, 19.606663], [-70.422641, 19.605752], [-70.423576, 19.605578], [-70.423539, 19.605158], [-70.422483, 19.604892], [-70.419456, 19.604715], [-70.418394, 19.60429], [-70.417326, 19.603195], [-70.416508, 19.60162], [-70.414316, 19.598523], [-70.413952, 19.59709], [-70.413086, 19.595898], [-70.412781, 19.589643], [-70.412229, 19.589351], [-70.409134, 19.588838], [-70.408897, 19.588649], [-70.408741, 19.588028], [-70.409643, 19.587355], [-70.409739, 19.586783], [-70.408222, 19.585974], [-70.407257, 19.58507], [-70.40749, 19.582914], [-70.407136, 19.582489], [-70.406079, 19.582541], [-70.405117, 19.582067], [-70.404355, 19.581306], [-70.404095, 19.58035], [-70.403336, 19.579733], [-70.402217, 19.579746], [-70.401824, 19.579931], [-70.40157, 19.579645], [-70.401816, 19.578533], [-70.402913, 19.577296], [-70.404869, 19.575948], [-70.405159, 19.574177], [-70.405555, 19.573219], [-70.406241, 19.573036], [-70.406555, 19.572212], [-70.406246, 19.571349], [-70.404317, 19.569447], [-70.403704, 19.568302], [-70.40385, 19.567584], [-70.405362, 19.567481], [-70.406724, 19.567666], [-70.407631, 19.567518], [-70.40925, 19.568275], [-70.410304, 19.567937], [-70.411306, 19.566784], [-70.411945, 19.564629], [-70.412848, 19.564001], [-70.412884, 19.563188], [-70.411024, 19.562722], [-70.40997, 19.563491], [-70.409518, 19.563636], [-70.408685, 19.562873], [-70.40881, 19.560947], [-70.409264, 19.558839], [-70.410623, 19.557619], [-70.411614, 19.557348], [-70.411891, 19.557501], [-70.413337, 19.557488], [-70.414083, 19.556799], [-70.414741, 19.555933], [-70.415288, 19.555926], [-70.416063, 19.554717], [-70.416974, 19.554707], [-70.41751, 19.554131], [-70.417804, 19.553097], [-70.418529, 19.55292], [-70.419029, 19.554004], [-70.419747, 19.553883], [-70.420104, 19.553137], [-70.420097, 19.552389], [-70.419062, 19.551594], [-70.418926, 19.549816], [-70.418736, 19.5489], [-70.419095, 19.54838], [-70.419268, 19.54752], [-70.418718, 19.546833], [-70.418247, 19.545744], [-70.418014, 19.544087], [-70.418007, 19.54299], [-70.418216, 19.542117], [-70.419232, 19.541393], [-70.420633, 19.54088], [-70.421022, 19.540395], [-70.420538, 19.539485], [-70.420435, 19.538151], [-70.42079, 19.537244], [-70.423831, 19.537049], [-70.424964, 19.537126], [-70.425372, 19.536734], [-70.42605, 19.536385], [-70.427321, 19.536417], [-70.427997, 19.535895], [-70.42808, 19.534991], [-70.428711, 19.534426], [-70.429936, 19.534331], [-70.430701, 19.533724], [-70.430872, 19.532301], [-70.430865, 19.53157], [-70.430683, 19.531092], [-70.430916, 19.530646], [-70.431313, 19.528138], [-70.431745, 19.527236], [-70.431932, 19.522994], [-70.432493, 19.520105], [-70.434013, 19.516228], [-70.434425, 19.515378], [-70.435158, 19.514812], [-70.436263, 19.513543], [-70.436418, 19.512886], [-70.436399, 19.512304], [-70.436976, 19.511281], [-70.437468, 19.509908], [-70.438143, 19.509442], [-70.439997, 19.508569], [-70.440418, 19.507961], [-70.441104, 19.50735], [-70.441846, 19.50699], [-70.442689, 19.506125], [-70.442685, 19.505723], [-70.442306, 19.50497], [-70.442513, 19.504312], [-70.442343, 19.503103], [-70.442395, 19.50258], [-70.441979, 19.501145], [-70.441836, 19.500956], [-70.441097, 19.500591], [-70.440189, 19.500194], [-70.43955, 19.500098], [-70.438855, 19.49965], [-70.43837, 19.498998], [-70.43825, 19.497535], [-70.437282, 19.496232], [-70.437266, 19.494467], [-70.437894, 19.493251], [-70.43783, 19.492044], [-70.437188, 19.491592], [-70.43639, 19.491599], [-70.43591, 19.491451], [-70.43548, 19.491001], [-70.435155, 19.490347], [-70.435097, 19.489692], [-70.435405, 19.489159], [-70.435237, 19.48826], [-70.435636, 19.487701], [-70.435283, 19.486765], [-70.434371, 19.485814], [-70.432765, 19.484666], [-70.432335, 19.484165], [-70.432017, 19.484017], [-70.430579, 19.484028], [-70.429085, 19.483485], [-70.428708, 19.483185], [-70.426828, 19.483158], [-70.426507, 19.483049], [-70.425972, 19.48149], [-70.425226, 19.480873], [-70.424885, 19.480428], [-70.42486, 19.479487], [-70.425362, 19.479148], [-70.425888, 19.479489], [-70.426052, 19.479752], [-70.426609, 19.479861], [-70.426968, 19.479743], [-70.427083, 19.479365], [-70.426569, 19.478557], [-70.426676, 19.47861], [-70.426985, 19.478392], [-70.427064, 19.478027], [-70.427509, 19.477883], [-70.427504, 19.477206], [-70.427857, 19.47675], [-70.427569, 19.476289], [-70.427784, 19.47568], [-70.428923, 19.475568], [-70.429244, 19.475337], [-70.430026, 19.473669], [-70.430097, 19.472683], [-70.43055, 19.471204], [-70.430762, 19.471203], [-70.431245, 19.47184], [-70.431482, 19.471877], [-70.431723, 19.471723], [-70.431721, 19.47135], [-70.430998, 19.47071], [-70.430038, 19.470565], [-70.429877, 19.470339], [-70.43031, 19.469655], [-70.430463, 19.469159], [-70.430262, 19.468898], [-70.429502, 19.468564], [-70.4293, 19.468263], [-70.429293, 19.467394], [-70.42909, 19.466943], [-70.428206, 19.466342], [-70.42732, 19.465328], [-70.426673, 19.464349], [-70.426627, 19.463742], [-70.425939, 19.462539], [-70.425457, 19.462051], [-70.424686, 19.460657], [-70.42436, 19.459282], [-70.424399, 19.45696], [-70.424791, 19.45456], [-70.423859, 19.452681], [-70.42395, 19.449391], [-70.423343, 19.44841], [-70.423338, 19.447805], [-70.42377, 19.447082], [-70.425589, 19.445213], [-70.426809, 19.443427], [-70.427294, 19.44242], [-70.429133, 19.439846], [-70.429614, 19.439724], [-70.429864, 19.439199], [-70.430979, 19.43826], [-70.432293, 19.437975], [-70.432955, 19.43727], [-70.433069, 19.436587], [-70.433352, 19.436223], [-70.433248, 19.435246], [-70.433006, 19.434977], [-70.432528, 19.434822], [-70.432237, 19.434438], [-70.432584, 19.433097], [-70.433085, 19.432866], [-70.433536, 19.432477], [-70.433963, 19.432355], [-70.433715, 19.431159], [-70.433109, 19.430211], [-70.433032, 19.429554], [-70.433383, 19.428734], [-70.433355, 19.428214], [-70.433159, 19.42774], [-70.432729, 19.427718], [-70.432392, 19.427517], [-70.431163, 19.426415], [-70.430727, 19.425851], [-70.430598, 19.424786], [-70.430665, 19.424263], [-70.431232, 19.423465], [-70.431732, 19.423143], [-70.432134, 19.42264], [-70.432124, 19.421552], [-70.432686, 19.420185], [-70.432668, 19.418099], [-70.433209, 19.417094], [-70.43323, 19.416824], [-70.432843, 19.416259], [-70.432817, 19.416033], [-70.433264, 19.415099], [-70.433478, 19.415051], [-70.433808, 19.414505], [-70.434189, 19.414252], [-70.435002, 19.414244], [-70.435119, 19.414018], [-70.435453, 19.413855], [-70.435783, 19.413287], [-70.436996, 19.412619], [-70.437855, 19.412408], [-70.43859, 19.411608], [-70.438947, 19.411376], [-70.439535, 19.410441], [-70.439413, 19.410171], [-70.438594, 19.40943], [-70.438872, 19.408476], [-70.438557, 19.407955], [-70.438959, 19.40734], [-70.439481, 19.407041], [-70.43986, 19.406538], [-70.440218, 19.406353], [-70.440406, 19.406057], [-70.440567, 19.405353], [-70.441258, 19.405007], [-70.441812, 19.405275], [-70.442097, 19.40525], [-70.442359, 19.405042], [-70.442876, 19.404132], [-70.44287, 19.40352], [-70.443081, 19.403018], [-70.442954, 19.402203], [-70.443285, 19.401836], [-70.443064, 19.401113], [-70.443123, 19.39957], [-70.443288, 19.399364], [-70.443693, 19.399269], [-70.443786, 19.399045], [-70.443519, 19.398432], [-70.443564, 19.398137], [-70.444752, 19.397356], [-70.444961, 19.396605], [-70.445338, 19.395876], [-70.445598, 19.395625], [-70.446124, 19.395597], [-70.446336, 19.395302], [-70.446212, 19.394803], [-70.44578, 19.394534], [-70.445537, 19.394105], [-70.445857, 19.392716], [-70.445498, 19.392404], [-70.444586, 19.391957], [-70.444078, 19.391349], [-70.443835, 19.390897], [-70.44376, 19.390466], [-70.443898, 19.38992], [-70.443794, 19.388901], [-70.443378, 19.387905], [-70.443376, 19.387588], [-70.444931, 19.38508], [-70.445302, 19.383761], [-70.445587, 19.383509], [-70.445922, 19.383411], [-70.445989, 19.383121], [-70.445844, 19.382803], [-70.445865, 19.382508], [-70.446506, 19.382117], [-70.446622, 19.381527], [-70.446952, 19.381093], [-70.447239, 19.380931], [-70.447898, 19.379975], [-70.44806, 19.379292], [-70.448344, 19.378925], [-70.44841, 19.378336], [-70.448934, 19.378012], [-70.448998, 19.377197], [-70.448777, 19.376586], [-70.449486, 19.375697], [-70.449508, 19.375335], [-70.448998, 19.374542], [-70.448981, 19.372546], [-70.44924, 19.372113], [-70.449643, 19.371746], [-70.451308, 19.371924], [-70.455922, 19.371592], [-70.456833, 19.371648], [-70.458049, 19.371854], [-70.460385, 19.372526], [-70.464222, 19.374658], [-70.464533, 19.375578], [-70.464046, 19.37652], [-70.464831, 19.376881], [-70.466926, 19.377535], [-70.467666, 19.37762], [-70.468946, 19.377513], [-70.470937, 19.377831], [-70.471208, 19.378206], [-70.470741, 19.379465], [-70.470747, 19.379813], [-70.470885, 19.38005], [-70.47207, 19.380612], [-70.472687, 19.380615], [-70.473208, 19.380365], [-70.47399, 19.380781], [-70.474421, 19.379467], [-70.473821, 19.378848], [-70.473789, 19.378623], [-70.473846, 19.378311], [-70.474492, 19.377288], [-70.474519, 19.376951], [-70.47373, 19.375372], [-70.473752, 19.374468], [-70.474105, 19.373984], [-70.474551, 19.373753], [-70.475198, 19.372958], [-70.475344, 19.372618], [-70.47534, 19.372447], [-70.474861, 19.371971], [-70.474824, 19.371097], [-70.474702, 19.370842], [-70.474875, 19.370162], [-70.474692, 19.369683], [-70.47465, 19.368355], [-70.475385, 19.367303], [-70.475372, 19.365862], [-70.475518, 19.365465], [-70.475902, 19.365123], [-70.476085, 19.36474], [-70.475935, 19.363676], [-70.47692, 19.362484], [-70.477005, 19.361947], [-70.4769, 19.360197], [-70.477727, 19.359682], [-70.477783, 19.359115], [-70.478169, 19.358943], [-70.478586, 19.358939], [-70.478973, 19.359094], [-70.479731, 19.358263], [-70.479695, 19.356443], [-70.480015, 19.35562], [-70.480426, 19.354994], [-70.480537, 19.354062], [-70.481068, 19.353464], [-70.481926, 19.352835], [-70.482905, 19.352431], [-70.483766, 19.352226], [-70.483972, 19.352084], [-70.484468, 19.350779], [-70.485542, 19.350653], [-70.485715, 19.350373], [-70.485712, 19.349978], [-70.485886, 19.349467], [-70.486444, 19.348783], [-70.486249, 19.346836], [-70.486426, 19.346608], [-70.486751, 19.346491], [-70.486838, 19.34621], [-70.486744, 19.345926], [-70.485881, 19.345652], [-70.485977, 19.345147], [-70.486276, 19.344932], [-70.486317, 19.344461], [-70.486582, 19.344119], [-70.48712, 19.344077], [-70.486975, 19.344717], [-70.487609, 19.344999], [-70.490086, 19.34466], [-70.493648, 19.344871], [-70.496135, 19.344571], [-70.497021, 19.344692], [-70.499041, 19.345305], [-70.499931, 19.345765], [-70.501253, 19.346756], [-70.503101, 19.348818], [-70.504075, 19.349621], [-70.506644, 19.35122], [-70.512142, 19.355001], [-70.514003, 19.356476], [-70.514741, 19.357333], [-70.515531, 19.356187], [-70.51652, 19.355297], [-70.517522, 19.354779], [-70.518845, 19.3544], [-70.520358, 19.354162], [-70.521778, 19.354096], [-70.522782, 19.354212], [-70.524381, 19.354788], [-70.525532, 19.355015], [-70.526698, 19.355016], [-70.527419, 19.354747], [-70.528379, 19.354188], [-70.528404, 19.354025], [-70.529511, 19.353133], [-70.530321, 19.352218], [-70.531377, 19.350523], [-70.532198, 19.349725], [-70.532831, 19.34946], [-70.53351, 19.3494], [-70.534752, 19.349758], [-70.53501, 19.35039], [-70.536266, 19.351826], [-70.536854, 19.35209], [-70.539064, 19.352101], [-70.540046, 19.351995], [-70.541029, 19.350837], [-70.541466, 19.350746], [-70.542866, 19.350846], [-70.543576, 19.350431], [-70.544416, 19.350123], [-70.545888, 19.349667], [-70.548858, 19.349809], [-70.551856, 19.349455], [-70.552503, 19.349474], [-70.555627, 19.350151], [-70.557081, 19.350316], [-70.56187, 19.351687], [-70.565041, 19.35141], [-70.569897, 19.352081], [-70.570425, 19.352041], [-70.571834, 19.35162], [-70.573114, 19.350856], [-70.573876, 19.351044], [-70.574503, 19.350927], [-70.575288, 19.351437], [-70.575513, 19.351812], [-70.575791, 19.351925], [-70.576638, 19.351947], [-70.577557, 19.351589], [-70.578693, 19.351725], [-70.579662, 19.351566], [-70.581148, 19.351563], [-70.58222, 19.351166], [-70.583161, 19.351333], [-70.584811, 19.352345], [-70.585645, 19.352609], [-70.58618, 19.353057], [-70.587998, 19.353759], [-70.588673, 19.353896], [-70.590385, 19.35529], [-70.590909, 19.356268], [-70.590958, 19.356914], [-70.591294, 19.357382], [-70.592473, 19.357944], [-70.593203, 19.358535], [-70.593696, 19.358678], [-70.594981, 19.358726], [-70.597416, 19.35941], [-70.597565, 19.359532], [-70.59878, 19.359192], [-70.599636, 19.359802], [-70.600152, 19.359848], [-70.600567, 19.359669], [-70.600839, 19.359677], [-70.601552, 19.359993], [-70.602045, 19.360038], [-70.602285, 19.360765], [-70.603026, 19.361155], [-70.604935, 19.36274], [-70.605104, 19.366547], [-70.605474, 19.367129], [-70.606282, 19.367715], [-70.606566, 19.368134], [-70.608003, 19.371926], [-70.60843, 19.37403], [-70.608525, 19.375175], [-70.610432, 19.375454], [-70.61064, 19.375737], [-70.610679, 19.377264]], [[-70.449771, 19.459592], [-70.44992, 19.459871], [-70.449777, 19.459578], [-70.449771, 19.459592]], [[-70.453367, 19.465686], [-70.454363, 19.465441], [-70.45437, 19.465429], [-70.453341, 19.465633], [-70.453367, 19.465686]], [[-70.464389, 19.467866], [-70.464333, 19.467891], [-70.464424, 19.467889], [-70.464389, 19.467866]], [[-70.465348, 19.469409], [-70.465309, 19.468825], [-70.465257, 19.469824], [-70.465348, 19.469409]], [[-70.469833, 19.475706], [-70.470155, 19.47579], [-70.469829, 19.475674], [-70.469833, 19.475706]], [[-70.469992, 19.474895], [-70.470101, 19.473407], [-70.470092, 19.473396], [-70.469889, 19.475211], [-70.469992, 19.474895]], [[-70.478036, 19.478666], [-70.478371, 19.478705], [-70.477897, 19.478573], [-70.478036, 19.478666]], [[-70.480801, 19.478543], [-70.480404, 19.478523], [-70.480325, 19.478554], [-70.480336, 19.478564], [-70.480801, 19.478543]], [[-70.48389, 19.478536], [-70.48341, 19.478593], [-70.483401, 19.478604], [-70.483927, 19.478555], [-70.48389, 19.478536]], [[-70.483933, 19.421931], [-70.484077, 19.421963], [-70.484289, 19.421912], [-70.484279, 19.421903], [-70.483933, 19.421931]], [[-70.484876, 19.51349], [-70.484785, 19.513376], [-70.485156, 19.514434], [-70.485162, 19.514421], [-70.484876, 19.51349]], [[-70.484915, 19.421779], [-70.484986, 19.421786], [-70.48571, 19.421509], [-70.485697, 19.421503], [-70.484915, 19.421779]], [[-70.48738, 19.52445], [-70.487597, 19.524308], [-70.486257, 19.524896], [-70.48627, 19.524902], [-70.48738, 19.52445]], [[-70.488004, 19.480121], [-70.487588, 19.479756], [-70.486832, 19.479306], [-70.486835, 19.47932], [-70.488004, 19.480121]], [[-70.487941, 19.523897], [-70.487938, 19.523745], [-70.487778, 19.524141], [-70.487792, 19.524138], [-70.487941, 19.523897]], [[-70.488834, 19.480797], [-70.48887, 19.48081], [-70.488839, 19.480785], [-70.488834, 19.480797]], [[-70.490141, 19.420487], [-70.490001, 19.420491], [-70.489994, 19.420503], [-70.490141, 19.420487]], [[-70.493829, 19.384703], [-70.493814, 19.384676], [-70.493806, 19.384689], [-70.493829, 19.384703]], [[-70.525113, 19.425801], [-70.525016, 19.42571], [-70.52511, 19.425815], [-70.525113, 19.425801]], [[-70.525863, 19.423588], [-70.525284, 19.424156], [-70.525205, 19.424327], [-70.525219, 19.424326], [-70.525863, 19.423588]], [[-70.526465, 19.422283], [-70.526451, 19.421965], [-70.52644, 19.421956], [-70.526404, 19.422458], [-70.526465, 19.422283]], [[-70.526972, 19.427278], [-70.526889, 19.427208], [-70.526969, 19.427291], [-70.526972, 19.427278]], [[-70.52775, 19.432017], [-70.52778, 19.431773], [-70.527314, 19.433507], [-70.527326, 19.4335], [-70.52775, 19.432017]], [[-70.527877, 19.428407], [-70.527846, 19.428387], [-70.527877, 19.428491], [-70.527887, 19.428481], [-70.527877, 19.428407]], [[-70.527924, 19.435797], [-70.527928, 19.435771], [-70.527914, 19.435787], [-70.527924, 19.435797]], [[-70.528081, 19.430029], [-70.528045, 19.429824], [-70.528034, 19.430242], [-70.528046, 19.430235], [-70.528081, 19.430029]], [[-70.544334, 19.392378], [-70.544561, 19.392495], [-70.544625, 19.392498], [-70.544619, 19.392485], [-70.544334, 19.392378]], [[-70.546355, 19.39275], [-70.545854, 19.392723], [-70.547047, 19.392923], [-70.546355, 19.39275]], [[-70.549569, 19.375715], [-70.549622, 19.375651], [-70.549143, 19.375884], [-70.549569, 19.375715]], [[-70.549891, 19.375471], [-70.549896, 19.375432], [-70.549877, 19.375469], [-70.549891, 19.375471]], [[-70.550136, 19.374982], [-70.550137, 19.374851], [-70.550118, 19.375001], [-70.550136, 19.374982]], [[-70.560458, 19.445149], [-70.560534, 19.44509], [-70.56119, 19.443819], [-70.561177, 19.443823], [-70.560458, 19.445149]], [[-70.560747, 19.418482], [-70.560719, 19.418487], [-70.560742, 19.418495], [-70.560747, 19.418482]], [[-70.560841, 19.367983], [-70.560804, 19.367996], [-70.56084, 19.367997], [-70.560841, 19.367983]], [[-70.563271, 19.384817], [-70.562718, 19.385161], [-70.562672, 19.38524], [-70.562686, 19.385243], [-70.563271, 19.384817]], [[-70.564449, 19.368595], [-70.564482, 19.368571], [-70.56444, 19.368584], [-70.564449, 19.368595]], [[-70.566873, 19.367867], [-70.56653, 19.367941], [-70.566884, 19.367875], [-70.566873, 19.367867]], [[-70.566595, 19.419191], [-70.566729, 19.419218], [-70.567323, 19.419118], [-70.567312, 19.419109], [-70.566595, 19.419191]], [[-70.568713, 19.366608], [-70.56868, 19.366583], [-70.568714, 19.366975], [-70.568713, 19.366608]]]}}, {"type": "Feature", "properties": {"COD_PROV": "09", "COD_MUN": "0902", "MUNICIPIO": "Cayetano Germosén", "N_DM": 0, "AREA_KM2": 17.94}, "geometry": {"type": "Polygon", "coordinates": [[[-70.501303, 19.31727], [-70.50107, 19.318061], [-70.499445, 19.31898], [-70.499139, 19.319346], [-70.497845, 19.319819], [-70.497523, 19.32013], [-70.49757, 19.320825], [-70.497776, 19.321283], [-70.498144, 19.321589], [-70.498434, 19.322242], [-70.49811, 19.323355], [-70.497647, 19.323483], [-70.497197, 19.323832], [-70.497166, 19.324152], [-70.496624, 19.324823], [-70.496568, 19.325141], [-70.496966, 19.325541], [-70.496998, 19.325715], [-70.496697, 19.326006], [-70.496731, 19.326468], [-70.496581, 19.32673], [-70.496033, 19.326763], [-70.49558, 19.327058], [-70.495615, 19.327548], [-70.495799, 19.327834], [-70.496074, 19.327977], [-70.496262, 19.328467], [-70.496236, 19.328958], [-70.495478, 19.329398], [-70.494653, 19.328944], [-70.494257, 19.328917], [-70.493861, 19.32895], [-70.493683, 19.329293], [-70.493928, 19.3297], [-70.495126, 19.330818], [-70.495128, 19.331049], [-70.494855, 19.331199], [-70.494832, 19.331976], [-70.493658, 19.332261], [-70.493339, 19.332647], [-70.493583, 19.333032], [-70.493626, 19.33334], [-70.49355, 19.333842], [-70.493108, 19.334268], [-70.493069, 19.334537], [-70.493482, 19.335307], [-70.493567, 19.335769], [-70.493371, 19.336519], [-70.492793, 19.33749], [-70.492385, 19.337885], [-70.491536, 19.338395], [-70.491102, 19.339236], [-70.490519, 19.339884], [-70.488083, 19.340239], [-70.487781, 19.340557], [-70.488089, 19.3413], [-70.488092, 19.341608], [-70.487687, 19.342421], [-70.487219, 19.342565], [-70.487073, 19.342761], [-70.487135, 19.343235], [-70.487344, 19.343486], [-70.487347, 19.343821], [-70.48712, 19.344077], [-70.48658, 19.344122], [-70.486317, 19.344461], [-70.486277, 19.344932], [-70.485976, 19.345151], [-70.485885, 19.345651], [-70.486747, 19.345927], [-70.486839, 19.346209], [-70.486752, 19.346492], [-70.486426, 19.346608], [-70.48625, 19.346836], [-70.486445, 19.348784], [-70.485886, 19.349468], [-70.485712, 19.349977], [-70.485715, 19.350373], [-70.485539, 19.350657], [-70.484469, 19.350781], [-70.483974, 19.352083], [-70.483767, 19.352226], [-70.482905, 19.352431], [-70.481927, 19.352835], [-70.481067, 19.353465], [-70.480537, 19.354062], [-70.480426, 19.354995], [-70.480015, 19.35562], [-70.479695, 19.356442], [-70.479733, 19.358262], [-70.478972, 19.359097], [-70.478586, 19.358939], [-70.478171, 19.358943], [-70.477787, 19.359114], [-70.477729, 19.359681], [-70.476901, 19.360198], [-70.477005, 19.361948], [-70.47692, 19.362486], [-70.475936, 19.363675], [-70.476085, 19.36474], [-70.475902, 19.365123], [-70.475518, 19.365466], [-70.475372, 19.365861], [-70.475385, 19.367303], [-70.47465, 19.368356], [-70.474692, 19.369682], [-70.474875, 19.370162], [-70.474703, 19.37084], [-70.474824, 19.371096], [-70.474861, 19.371968], [-70.475342, 19.372448], [-70.475344, 19.372618], [-70.475198, 19.372958], [-70.47455, 19.373755], [-70.474105, 19.373985], [-70.473752, 19.37447], [-70.47373, 19.375372], [-70.474519, 19.376949], [-70.474492, 19.377288], [-70.473847, 19.37831], [-70.473789, 19.378621], [-70.473823, 19.37885], [-70.474422, 19.379465], [-70.474395, 19.379777], [-70.47399, 19.380788], [-70.473209, 19.380366], [-70.472688, 19.380615], [-70.472234, 19.380636], [-70.471594, 19.380453], [-70.470885, 19.38005], [-70.470747, 19.379814], [-70.470741, 19.379465], [-70.471207, 19.378205], [-70.471108, 19.377949], [-70.470683, 19.377723], [-70.468946, 19.377513], [-70.467392, 19.377622], [-70.465187, 19.377006], [-70.464037, 19.376516], [-70.464532, 19.375578], [-70.464221, 19.374658], [-70.460385, 19.372526], [-70.45805, 19.371854], [-70.456832, 19.371648], [-70.455921, 19.371592], [-70.451308, 19.371924], [-70.449643, 19.371746], [-70.449418, 19.370659], [-70.449536, 19.370409], [-70.450156, 19.370267], [-70.451952, 19.370593], [-70.452618, 19.370588], [-70.452879, 19.370384], [-70.45258, 19.368614], [-70.452692, 19.367911], [-70.452402, 19.367459], [-70.452658, 19.366686], [-70.452652, 19.366005], [-70.452884, 19.365186], [-70.453546, 19.364341], [-70.454355, 19.363949], [-70.455596, 19.363575], [-70.456092, 19.362982], [-70.456303, 19.362596], [-70.456226, 19.361915], [-70.456669, 19.360641], [-70.456916, 19.358869], [-70.457483, 19.35818], [-70.457408, 19.357867], [-70.457145, 19.357666], [-70.456521, 19.357465], [-70.456109, 19.356788], [-70.456096, 19.355404], [-70.45628, 19.35454], [-70.456272, 19.353682], [-70.455625, 19.353299], [-70.455336, 19.353255], [-70.455213, 19.352802], [-70.456015, 19.351708], [-70.456013, 19.351435], [-70.455335, 19.350464], [-70.455305, 19.34967], [-70.455157, 19.349195], [-70.454627, 19.348722], [-70.454171, 19.348522], [-70.45405, 19.348319], [-70.4545, 19.347884], [-70.456008, 19.348053], [-70.456437, 19.348027], [-70.456794, 19.34775], [-70.4571, 19.347251], [-70.457187, 19.346297], [-70.457538, 19.345612], [-70.457452, 19.345221], [-70.457003, 19.344415], [-70.457, 19.344052], [-70.457351, 19.343255], [-70.459029, 19.343442], [-70.459215, 19.343149], [-70.459445, 19.342127], [-70.459965, 19.341326], [-70.461339, 19.340106], [-70.462298, 19.339078], [-70.462473, 19.338667], [-70.46242, 19.3382], [-70.463163, 19.337241], [-70.463153, 19.336525], [-70.463761, 19.336728], [-70.466456, 19.33824], [-70.469823, 19.339023], [-70.471999, 19.339928], [-70.472833, 19.339942], [-70.472511, 19.339304], [-70.472662, 19.338135], [-70.47241, 19.337557], [-70.472432, 19.336691], [-70.472809, 19.336044], [-70.472828, 19.334955], [-70.473237, 19.334533], [-70.473588, 19.334389], [-70.473819, 19.334055], [-70.473669, 19.333468], [-70.473775, 19.332982], [-70.474148, 19.332477], [-70.474319, 19.331831], [-70.474188, 19.331353], [-70.473343, 19.330887], [-70.473388, 19.33036], [-70.473739, 19.330164], [-70.473985, 19.329781], [-70.474078, 19.328774], [-70.474306, 19.328375], [-70.474976, 19.327952], [-70.475323, 19.327567], [-70.475416, 19.326608], [-70.47626, 19.325596], [-70.476307, 19.325116], [-70.476603, 19.32449], [-70.476495, 19.323678], [-70.476685, 19.322527], [-70.476176, 19.321486], [-70.47617, 19.320898], [-70.47492, 19.318929], [-70.474915, 19.318434], [-70.475196, 19.31798], [-70.475514, 19.316401], [-70.475285, 19.315317], [-70.475123, 19.315015], [-70.47456, 19.31464], [-70.474234, 19.313959], [-70.474347, 19.313255], [-70.474019, 19.312289], [-70.474056, 19.312022], [-70.474308, 19.311792], [-70.473945, 19.311544], [-70.474558, 19.310939], [-70.474718, 19.310188], [-70.475175, 19.309595], [-70.475713, 19.30843], [-70.476307, 19.307808], [-70.476417, 19.307751], [-70.477326, 19.308326], [-70.477611, 19.308212], [-70.479788, 19.309024], [-70.482354, 19.310147], [-70.483555, 19.310082], [-70.48396, 19.31282], [-70.484113, 19.312999], [-70.486733, 19.312], [-70.487677, 19.311414], [-70.491434, 19.310523], [-70.499295, 19.3112], [-70.50054, 19.311527], [-70.500546, 19.312115], [-70.499157, 19.314005], [-70.499235, 19.314378], [-70.498998, 19.314704], [-70.498892, 19.315272], [-70.499081, 19.315626], [-70.499325, 19.315768], [-70.500911, 19.316423], [-70.501303, 19.31727]]]}}, {"type": "Feature", "properties": {"COD_PROV": "09", "COD_MUN": "0903", "MUNICIPIO": "Gaspar Hernández", "N_DM": 3, "AREA_KM2": 370.51}, "geometry": {"type": "Polygon", "coordinates": [[[-70.412892, 19.56319], [-70.412848, 19.564003], [-70.411945, 19.56463], [-70.411306, 19.566784], [-70.410306, 19.567936], [-70.40925, 19.568276], [-70.407631, 19.567518], [-70.406724, 19.567666], [-70.405362, 19.567481], [-70.40385, 19.567588], [-70.403705, 19.568303], [-70.404316, 19.569446], [-70.406247, 19.57135], [-70.406556, 19.57221], [-70.406241, 19.573038], [-70.405553, 19.573224], [-70.405159, 19.574177], [-70.40487, 19.575948], [-70.403271, 19.57705], [-70.402273, 19.576608], [-70.402042, 19.576289], [-70.402187, 19.576125], [-70.402256, 19.575684], [-70.401582, 19.574957], [-70.401939, 19.5741], [-70.401389, 19.573654], [-70.40099, 19.573709], [-70.40013, 19.574223], [-70.397827, 19.575974], [-70.397338, 19.57604], [-70.395835, 19.575928], [-70.394588, 19.575196], [-70.393838, 19.5752], [-70.393382, 19.575451], [-70.392322, 19.576529], [-70.391572, 19.576783], [-70.39016, 19.577533], [-70.389412, 19.577719], [-70.3876, 19.577668], [-70.386921, 19.577305], [-70.385784, 19.576948], [-70.384798, 19.576282], [-70.384386, 19.575233], [-70.384301, 19.573736], [-70.383438, 19.572447], [-70.382252, 19.572738], [-70.381957, 19.57296], [-70.381574, 19.57361], [-70.380502, 19.576498], [-70.380007, 19.577532], [-70.378436, 19.580175], [-70.37765, 19.581033], [-70.377149, 19.582464], [-70.371769, 19.587002], [-70.369747, 19.588217], [-70.367891, 19.590229], [-70.367251, 19.591171], [-70.366761, 19.593824], [-70.367039, 19.594567], [-70.370111, 19.598284], [-70.370874, 19.599683], [-70.37117, 19.60079], [-70.375753, 19.604195], [-70.377156, 19.605655], [-70.378601, 19.607584], [-70.380031, 19.609023], [-70.382757, 19.61083], [-70.385745, 19.612445], [-70.386078, 19.612128], [-70.386683, 19.611912], [-70.387649, 19.612197], [-70.389097, 19.612368], [-70.389762, 19.61256], [-70.391568, 19.612416], [-70.393402, 19.613673], [-70.394514, 19.614038], [-70.395056, 19.613821], [-70.395394, 19.613904], [-70.396051, 19.615418], [-70.39682, 19.616177], [-70.397437, 19.616401], [-70.397915, 19.61644], [-70.398833, 19.616315], [-70.399838, 19.615459], [-70.400167, 19.615473], [-70.400449, 19.615638], [-70.40078, 19.61613], [-70.400843, 19.616689], [-70.400922, 19.616887], [-70.401375, 19.61704], [-70.403719, 19.617531], [-70.404222, 19.617734], [-70.404947, 19.618243], [-70.405046, 19.619124], [-70.405584, 19.620072], [-70.405909, 19.620343], [-70.406925, 19.620994], [-70.407564, 19.620786], [-70.407881, 19.620514], [-70.408874, 19.624408], [-70.408686, 19.62662], [-70.408871, 19.627776], [-70.408968, 19.631375], [-70.408783, 19.632075], [-70.4081, 19.633421], [-70.408027, 19.634504], [-70.407668, 19.635141], [-70.407777, 19.635507], [-70.407147, 19.638216], [-70.406671, 19.642086], [-70.406129, 19.644412], [-70.405801, 19.64673], [-70.403774, 19.652143], [-70.403707, 19.653222], [-70.403325, 19.653069], [-70.40281, 19.653157], [-70.402255, 19.654001], [-70.402503, 19.655393], [-70.403004, 19.656753], [-70.403358, 19.658279], [-70.402408, 19.657927], [-70.4014, 19.657935], [-70.400707, 19.658704], [-70.400696, 19.659363], [-70.402328, 19.661726], [-70.404323, 19.664299], [-70.40397, 19.665035], [-70.403079, 19.665722], [-70.402006, 19.665959], [-70.400743, 19.665176], [-70.399175, 19.663544], [-70.39808, 19.661402], [-70.397526, 19.659536], [-70.396978, 19.658409], [-70.396487, 19.65694], [-70.396359, 19.656035], [-70.396413, 19.655298], [-70.396227, 19.654509], [-70.395677, 19.65389], [-70.395026, 19.654124], [-70.394854, 19.654743], [-70.395277, 19.655364], [-70.394987, 19.656328], [-70.394035, 19.656846], [-70.391766, 19.657202], [-70.390507, 19.65693], [-70.389193, 19.657055], [-70.388602, 19.657738], [-70.388412, 19.65999], [-70.389589, 19.66069], [-70.393224, 19.659872], [-70.393482, 19.66018], [-70.393621, 19.660646], [-70.394028, 19.661061], [-70.394218, 19.662214], [-70.395397, 19.663945], [-70.397289, 19.664907], [-70.397952, 19.665003], [-70.397341, 19.66611], [-70.396495, 19.667057], [-70.396239, 19.667887], [-70.393909, 19.668811], [-70.388403, 19.671271], [-70.383835, 19.671507], [-70.380426, 19.670729], [-70.378195, 19.670645], [-70.375876, 19.671161], [-70.374085, 19.671871], [-70.371942, 19.673416], [-70.370253, 19.675031], [-70.368468, 19.675817], [-70.367924, 19.675858], [-70.367393, 19.677123], [-70.36784, 19.67868], [-70.368976, 19.679535], [-70.369532, 19.681063], [-70.369946, 19.68169], [-70.370908, 19.682958], [-70.371923, 19.683885], [-70.373537, 19.684784], [-70.374395, 19.686479], [-70.374273, 19.688078], [-70.375076, 19.68972], [-70.375498, 19.691105], [-70.375408, 19.69302], [-70.375536, 19.695333], [-70.376607, 19.696233], [-70.3782, 19.69622], [-70.379576, 19.696535], [-70.380194, 19.696367], [-70.380892, 19.696623], [-70.380995, 19.697611], [-70.380088, 19.698953], [-70.377127, 19.702485], [-70.376275, 19.702903], [-70.375524, 19.702909], [-70.374643, 19.702638], [-70.372998, 19.700951], [-70.372241, 19.70054], [-70.371272, 19.700584], [-70.370676, 19.701471], [-70.370334, 19.702271], [-70.370341, 19.702932], [-70.370731, 19.70364], [-70.371267, 19.704226], [-70.37207, 19.706006], [-70.372293, 19.708365], [-70.373475, 19.709656], [-70.376357, 19.711582], [-70.376566, 19.712567], [-70.376494, 19.71316], [-70.375862, 19.713771], [-70.375051, 19.714017], [-70.373947, 19.713448], [-70.373035, 19.712437], [-70.371217, 19.711225], [-70.369545, 19.71037], [-70.368777, 19.708517], [-70.366928, 19.706548], [-70.364609, 19.703096], [-70.363412, 19.700783], [-70.361992, 19.699213], [-70.36176, 19.698844], [-70.361556, 19.698099], [-70.360075, 19.696903], [-70.357368, 19.69398], [-70.354809, 19.691656], [-70.352842, 19.690355], [-70.350372, 19.689001], [-70.342573, 19.683507], [-70.338201, 19.680734], [-70.336425, 19.679374], [-70.334836, 19.677832], [-70.33249, 19.676178], [-70.331411, 19.67523], [-70.329947, 19.67369], [-70.326585, 19.671029], [-70.324362, 19.668895], [-70.320745, 19.665935], [-70.318717, 19.664518], [-70.31497, 19.661083], [-70.312876, 19.659427], [-70.310404, 19.657653], [-70.306669, 19.655591], [-70.303058, 19.653289], [-70.302046, 19.652937], [-70.300406, 19.652709], [-70.292751, 19.649123], [-70.289782, 19.648248], [-70.288327, 19.647603], [-70.286181, 19.646961], [-70.284223, 19.646616], [-70.281124, 19.645384], [-70.272663, 19.643177], [-70.270513, 19.642236], [-70.267025, 19.640875], [-70.257733, 19.641225], [-70.253685, 19.641111], [-70.25151, 19.640913], [-70.249236, 19.641394], [-70.248364, 19.64129], [-70.244848, 19.641953], [-70.242681, 19.64282], [-70.24223, 19.642682], [-70.24155, 19.642189], [-70.239565, 19.641556], [-70.234147, 19.641832], [-70.232568, 19.641425], [-70.231245, 19.641434], [-70.228967, 19.640135], [-70.227829, 19.639666], [-70.226693, 19.639496], [-70.225175, 19.638849], [-70.223976, 19.638559], [-70.22076, 19.636911], [-70.220093, 19.636402], [-70.219132, 19.636125], [-70.216954, 19.636106], [-70.216339, 19.635974], [-70.214558, 19.635245], [-70.213055, 19.635197], [-70.212213, 19.635033], [-70.211188, 19.634699], [-70.209981, 19.63391], [-70.208594, 19.633291], [-70.2077, 19.633173], [-70.205657, 19.633187], [-70.203432, 19.63286], [-70.201277, 19.631732], [-70.199709, 19.630579], [-70.198712, 19.630226], [-70.197723, 19.630278], [-70.197393, 19.630639], [-70.196638, 19.630733], [-70.196163, 19.630379], [-70.195638, 19.629754], [-70.194783, 19.629268], [-70.193837, 19.629095], [-70.193322, 19.629144], [-70.192849, 19.629685], [-70.191761, 19.629556], [-70.188772, 19.627963], [-70.187916, 19.627298], [-70.186872, 19.626767], [-70.185783, 19.626776], [-70.184703, 19.627455], [-70.184152, 19.628184], [-70.183051, 19.628376], [-70.182141, 19.628136], [-70.18149, 19.627709], [-70.179071, 19.625084], [-70.177702, 19.624108], [-70.176333, 19.623195], [-70.174578, 19.622348], [-70.172693, 19.621746], [-70.171004, 19.621572], [-70.16878, 19.621564], [-70.167809, 19.621658], [-70.16551, 19.622647], [-70.16349, 19.622694], [-70.162567, 19.622499], [-70.161838, 19.622151], [-70.160571, 19.621204], [-70.159055, 19.620655], [-70.156277, 19.620118], [-70.152749, 19.62014], [-70.151239, 19.620387], [-70.147795, 19.620409], [-70.146283, 19.620579], [-70.145445, 19.620904], [-70.144862, 19.621623], [-70.14386, 19.622505], [-70.142687, 19.62299], [-70.141176, 19.623159], [-70.138571, 19.623176], [-70.137039, 19.623326], [-70.135096, 19.62383], [-70.132113, 19.623786], [-70.130555, 19.623428], [-70.129385, 19.623313], [-70.12835, 19.623441], [-70.127381, 19.62394], [-70.125474, 19.624611], [-70.122702, 19.624708], [-70.119264, 19.625685], [-70.117333, 19.625936], [-70.115483, 19.625866], [-70.111286, 19.626132], [-70.108763, 19.626595], [-70.106344, 19.628347], [-70.104887, 19.629035], [-70.102392, 19.629582], [-70.099807, 19.628791], [-70.098638, 19.628721], [-70.09649, 19.629466], [-70.094661, 19.630408], [-70.093073, 19.631577], [-70.091007, 19.632723], [-70.089446, 19.63379], [-70.087342, 19.635458], [-70.085802, 19.634077], [-70.085068, 19.634272], [-70.084891, 19.635076], [-70.08456, 19.635505], [-70.08418, 19.635651], [-70.083115, 19.635369], [-70.082662, 19.634892], [-70.082474, 19.634074], [-70.083043, 19.6312], [-70.082803, 19.630229], [-70.0821, 19.628914], [-70.081821, 19.62745], [-70.081959, 19.626864], [-70.083468, 19.626035], [-70.084047, 19.625384], [-70.084015, 19.624865], [-70.083166, 19.623615], [-70.082848, 19.622329], [-70.083433, 19.622023], [-70.083882, 19.622258], [-70.085198, 19.623413], [-70.08568, 19.623331], [-70.085825, 19.622966], [-70.085616, 19.622005], [-70.085752, 19.621702], [-70.086667, 19.620402], [-70.087584, 19.619763], [-70.08755, 19.618904], [-70.086411, 19.617916], [-70.086408, 19.617419], [-70.086045, 19.616766], [-70.086011, 19.616344], [-70.085734, 19.615747], [-70.085721, 19.61507], [-70.086111, 19.614441], [-70.085964, 19.61375], [-70.084733, 19.613196], [-70.083567, 19.612212], [-70.083018, 19.611591], [-70.083545, 19.610558], [-70.08413, 19.610665], [-70.084739, 19.611099], [-70.085412, 19.611162], [-70.085873, 19.611024], [-70.08641, 19.611425], [-70.08733, 19.611452], [-70.087751, 19.610948], [-70.087038, 19.610041], [-70.086603, 19.609138], [-70.085039, 19.607549], [-70.0845, 19.606585], [-70.084138, 19.605577], [-70.083999, 19.604611], [-70.083728, 19.604024], [-70.08359, 19.603309], [-70.083586, 19.602594], [-70.083805, 19.602171], [-70.08394, 19.601363], [-70.085052, 19.601057], [-70.085834, 19.60068], [-70.086731, 19.600834], [-70.087343, 19.600565], [-70.087114, 19.599452], [-70.087239, 19.598544], [-70.086994, 19.598231], [-70.087249, 19.597782], [-70.08833, 19.597108], [-70.088603, 19.595886], [-70.088763, 19.594665], [-70.088532, 19.59403], [-70.087023, 19.594091], [-70.086465, 19.594519], [-70.086015, 19.594256], [-70.086004, 19.592557], [-70.086218, 19.59107], [-70.086605, 19.590271], [-70.087896, 19.590792], [-70.08901, 19.589829], [-70.089058, 19.588982], [-70.087824, 19.588353], [-70.086637, 19.586714], [-70.087138, 19.585991], [-70.088041, 19.586184], [-70.088712, 19.586018], [-70.089027, 19.585853], [-70.089507, 19.585297], [-70.089858, 19.585232], [-70.090965, 19.584584], [-70.091493, 19.584777], [-70.092211, 19.585655], [-70.092586, 19.585884], [-70.092786, 19.585936], [-70.09341, 19.58573], [-70.093471, 19.585459], [-70.093336, 19.584865], [-70.09343, 19.584313], [-70.093993, 19.583998], [-70.094532, 19.583373], [-70.094394, 19.58242], [-70.094158, 19.582039], [-70.094264, 19.581596], [-70.09451, 19.581586], [-70.094975, 19.58196], [-70.095464, 19.582159], [-70.096506, 19.581919], [-70.097528, 19.581418], [-70.098899, 19.581146], [-70.099896, 19.581699], [-70.100127, 19.581986], [-70.100268, 19.582287], [-70.100342, 19.583158], [-70.100601, 19.583275], [-70.101026, 19.583106], [-70.102913, 19.579414], [-70.103436, 19.579013], [-70.103878, 19.57892], [-70.104091, 19.57904], [-70.104225, 19.57932], [-70.104117, 19.579539], [-70.104207, 19.579972], [-70.1046, 19.579939], [-70.105002, 19.579773], [-70.104977, 19.579139], [-70.105803, 19.579281], [-70.106345, 19.578503], [-70.10694, 19.578251], [-70.107568, 19.578919], [-70.108385, 19.579407], [-70.108766, 19.579412], [-70.109339, 19.57904], [-70.109642, 19.578679], [-70.110395, 19.577058], [-70.110791, 19.576678], [-70.111269, 19.576675], [-70.112506, 19.57697], [-70.113187, 19.577532], [-70.113949, 19.57779], [-70.114264, 19.577562], [-70.114459, 19.577147], [-70.114327, 19.576102], [-70.114767, 19.575965], [-70.115155, 19.57555], [-70.115135, 19.573988], [-70.115393, 19.573741], [-70.117146, 19.573617], [-70.117942, 19.573423], [-70.118657, 19.573154], [-70.119449, 19.572469], [-70.119926, 19.572278], [-70.120245, 19.572276], [-70.120565, 19.572538], [-70.121211, 19.573591], [-70.121689, 19.573626], [-70.122007, 19.57351], [-70.122203, 19.573056], [-70.12209, 19.571931], [-70.122263, 19.571855], [-70.122308, 19.571403], [-70.121546, 19.569947], [-70.121439, 19.569552], [-70.121657, 19.569018], [-70.122688, 19.568294], [-70.124165, 19.568701], [-70.125798, 19.568728], [-70.126198, 19.56861], [-70.126433, 19.568192], [-70.126428, 19.567405], [-70.126216, 19.567263], [-70.126482, 19.567057], [-70.126531, 19.566693], [-70.125822, 19.565924], [-70.125063, 19.565518], [-70.124967, 19.564974], [-70.12531, 19.564554], [-70.125982, 19.564037], [-70.126678, 19.56301], [-70.127667, 19.561915], [-70.128598, 19.561864], [-70.129799, 19.562197], [-70.130766, 19.562668], [-70.131656, 19.562616], [-70.132658, 19.561825], [-70.134092, 19.560377], [-70.136062, 19.559916], [-70.136405, 19.557857], [-70.136984, 19.556945], [-70.13801, 19.556229], [-70.139582, 19.555646], [-70.140449, 19.555595], [-70.141019, 19.5557], [-70.142781, 19.556844], [-70.146532, 19.556218], [-70.15025, 19.556143], [-70.15102, 19.555666], [-70.151514, 19.555069], [-70.152786, 19.554803], [-70.153692, 19.555331], [-70.154178, 19.555054], [-70.155049, 19.55292], [-70.15625, 19.551214], [-70.156872, 19.550675], [-70.157886, 19.55049], [-70.158508, 19.551996], [-70.159176, 19.552327], [-70.160318, 19.552554], [-70.162147, 19.553302], [-70.161746, 19.555101], [-70.162159, 19.555866], [-70.162979, 19.55655], [-70.163466, 19.556497], [-70.163838, 19.555378], [-70.164181, 19.554899], [-70.164857, 19.554967], [-70.16616, 19.555406], [-70.167196, 19.555598], [-70.16804, 19.555627], [-70.169189, 19.555212], [-70.170001, 19.55468], [-70.171352, 19.55279], [-70.172249, 19.552179], [-70.17555, 19.551677], [-70.178322, 19.551638], [-70.178781, 19.552366], [-70.179704, 19.552937], [-70.180588, 19.553306], [-70.182484, 19.55349], [-70.185439, 19.554178], [-70.187915, 19.553866], [-70.19009, 19.554129], [-70.191735, 19.554507], [-70.196027, 19.556376], [-70.19634, 19.55684], [-70.197718, 19.557571], [-70.198108, 19.555852], [-70.198387, 19.555236], [-70.198883, 19.554656], [-70.200605, 19.553832], [-70.201389, 19.553222], [-70.201745, 19.552097], [-70.201585, 19.551277], [-70.201194, 19.55033], [-70.200759, 19.549584], [-70.199797, 19.548633], [-70.199172, 19.547805], [-70.198594, 19.546515], [-70.198225, 19.543685], [-70.198225, 19.541784], [-70.198109, 19.540817], [-70.198183, 19.538074], [-70.197059, 19.534693], [-70.197126, 19.53249], [-70.196927, 19.529562], [-70.197134, 19.52804], [-70.197711, 19.527248], [-70.197498, 19.524706], [-70.197796, 19.523165], [-70.19755, 19.521586], [-70.197515, 19.519885], [-70.196697, 19.517117], [-70.199268, 19.516831], [-70.200378, 19.516385], [-70.201621, 19.516268], [-70.202834, 19.515863], [-70.204866, 19.515538], [-70.205858, 19.515567], [-70.207065, 19.515404], [-70.208561, 19.514727], [-70.209111, 19.5148], [-70.211284, 19.514663], [-70.212914, 19.51439], [-70.216296, 19.514564], [-70.218548, 19.515093], [-70.22495, 19.51587], [-70.227241, 19.515814], [-70.228131, 19.515995], [-70.228939, 19.516383], [-70.229423, 19.516827], [-70.230553, 19.517454], [-70.231623, 19.517605], [-70.232255, 19.51791], [-70.234441, 19.517922], [-70.236491, 19.518394], [-70.237756, 19.518521], [-70.239864, 19.518956], [-70.240627, 19.519269], [-70.241667, 19.519508], [-70.243799, 19.5206], [-70.245353, 19.521654], [-70.253946, 19.522664], [-70.253933, 19.522838], [-70.254445, 19.523928], [-70.256363, 19.524], [-70.263941, 19.526157], [-70.271206, 19.5303], [-70.278953, 19.531067], [-70.281254, 19.531107], [-70.283345, 19.530922], [-70.284692, 19.531196], [-70.286344, 19.532175], [-70.288877, 19.534524], [-70.290489, 19.536378], [-70.291996, 19.544017], [-70.292667, 19.545972], [-70.293561, 19.547076], [-70.294055, 19.547298], [-70.295001, 19.547376], [-70.296287, 19.548802], [-70.297262, 19.551062], [-70.298653, 19.554832], [-70.300986, 19.556134], [-70.30365, 19.558377], [-70.30518, 19.559244], [-70.306741, 19.559856], [-70.308718, 19.560465], [-70.312274, 19.562171], [-70.312677, 19.561995], [-70.31321, 19.561453], [-70.314667, 19.56045], [-70.31583, 19.560243], [-70.31651, 19.559749], [-70.315163, 19.558446], [-70.31526, 19.557872], [-70.316118, 19.557672], [-70.31691, 19.558043], [-70.317289, 19.558352], [-70.317612, 19.558184], [-70.31767, 19.557529], [-70.317416, 19.55729], [-70.318767, 19.556984], [-70.319931, 19.556386], [-70.321464, 19.556167], [-70.322773, 19.555465], [-70.323757, 19.555146], [-70.325585, 19.555167], [-70.326605, 19.554813], [-70.328496, 19.553795], [-70.33076, 19.55364], [-70.332255, 19.553213], [-70.33397, 19.553062], [-70.335172, 19.552533], [-70.335912, 19.552528], [-70.338287, 19.550307], [-70.338985, 19.549417], [-70.338951, 19.547156], [-70.339372, 19.543795], [-70.339459, 19.540985], [-70.33933, 19.540734], [-70.339695, 19.538732], [-70.340256, 19.537139], [-70.340941, 19.534043], [-70.341266, 19.530659], [-70.341209, 19.529138], [-70.341353, 19.526695], [-70.34187, 19.523489], [-70.341905, 19.522169], [-70.344716, 19.519559], [-70.345587, 19.518954], [-70.346253, 19.518916], [-70.347164, 19.519042], [-70.348183, 19.519367], [-70.348883, 19.519428], [-70.350914, 19.519147], [-70.35151, 19.519143], [-70.352598, 19.519367], [-70.354489, 19.519353], [-70.355262, 19.51958], [-70.355896, 19.519973], [-70.35646, 19.520401], [-70.35647, 19.52163], [-70.356094, 19.522728], [-70.356101, 19.523163], [-70.356417, 19.523358], [-70.357815, 19.523215], [-70.358764, 19.523573], [-70.359328, 19.524], [-70.360489, 19.524523], [-70.361265, 19.525215], [-70.361159, 19.528939], [-70.361523, 19.52921], [-70.362101, 19.529062], [-70.362796, 19.528093], [-70.363426, 19.528022], [-70.363954, 19.528384], [-70.363961, 19.529114], [-70.364218, 19.530541], [-70.364223, 19.531139], [-70.364017, 19.531606], [-70.364026, 19.532371], [-70.364446, 19.532698], [-70.366485, 19.53348], [-70.371561, 19.53301], [-70.372266, 19.533503], [-70.372691, 19.533998], [-70.372942, 19.534727], [-70.372994, 19.536653], [-70.373139, 19.537346], [-70.373491, 19.537545], [-70.374123, 19.537542], [-70.374679, 19.537173], [-70.37506, 19.536505], [-70.375615, 19.535902], [-70.376488, 19.53553], [-70.377083, 19.535459], [-70.377856, 19.535686], [-70.378526, 19.53608], [-70.381609, 19.536122], [-70.38277, 19.536545], [-70.383468, 19.53654], [-70.384063, 19.536336], [-70.385008, 19.536263], [-70.385356, 19.536059], [-70.385259, 19.534853], [-70.385575, 19.534633], [-70.386441, 19.535015], [-70.387447, 19.535825], [-70.388177, 19.536249], [-70.389055, 19.537923], [-70.390369, 19.538874], [-70.391364, 19.539347], [-70.391924, 19.540064], [-70.392504, 19.54054], [-70.395987, 19.540601], [-70.397928, 19.541133], [-70.398527, 19.541128], [-70.398986, 19.540862], [-70.399217, 19.540861], [-70.39945, 19.541121], [-70.399785, 19.542518], [-70.40072, 19.544061], [-70.401509, 19.544646], [-70.402434, 19.544902], [-70.403039, 19.545531], [-70.403579, 19.54662], [-70.403874, 19.548717], [-70.404548, 19.549366], [-70.405497, 19.549862], [-70.406473, 19.550641], [-70.407334, 19.551553], [-70.407917, 19.552335], [-70.40841, 19.553337], [-70.409084, 19.553943], [-70.411066, 19.55642], [-70.411324, 19.557335], [-70.411462, 19.557263], [-70.411614, 19.557348], [-70.410623, 19.557619], [-70.409264, 19.558839], [-70.40881, 19.560947], [-70.408687, 19.562874], [-70.40952, 19.563635], [-70.40997, 19.563491], [-70.411023, 19.562721], [-70.412892, 19.56319]], [[-70.195578, 19.567012], [-70.195579, 19.567133], [-70.195645, 19.5672], [-70.195652, 19.567187], [-70.195578, 19.567012]], [[-70.196053, 19.567642], [-70.196088, 19.567711], [-70.196438, 19.567907], [-70.196435, 19.567893], [-70.196053, 19.567642]], [[-70.197463, 19.568499], [-70.197423, 19.568501], [-70.197463, 19.568513], [-70.197463, 19.568499]], [[-70.198865, 19.569155], [-70.198778, 19.569126], [-70.198934, 19.569238], [-70.198936, 19.569223], [-70.198865, 19.569155]], [[-70.202684, 19.573708], [-70.202533, 19.573432], [-70.20268, 19.573721], [-70.202684, 19.573708]], [[-70.208101, 19.576411], [-70.207864, 19.576534], [-70.208277, 19.576408], [-70.208101, 19.576411]], [[-70.209173, 19.576341], [-70.209129, 19.576363], [-70.209205, 19.576358], [-70.209173, 19.576341]], [[-70.210671, 19.576648], [-70.210619, 19.576657], [-70.210737, 19.576697], [-70.210671, 19.576648]], [[-70.212667, 19.578259], [-70.212582, 19.578187], [-70.213176, 19.579331], [-70.212667, 19.578259]], [[-70.215227, 19.580899], [-70.215335, 19.58084], [-70.215338, 19.580826], [-70.215142, 19.580908], [-70.215227, 19.580899]], [[-70.217285, 19.579749], [-70.216709, 19.580088], [-70.217299, 19.579754], [-70.217285, 19.579749]], [[-70.298105, 19.575759], [-70.298173, 19.575924], [-70.298151, 19.575546], [-70.298105, 19.575759]], [[-70.298248, 19.574944], [-70.298243, 19.57509], [-70.298419, 19.574539], [-70.298248, 19.574944]], [[-70.302022, 19.573628], [-70.302621, 19.573664], [-70.302632, 19.573654], [-70.301739, 19.573535], [-70.302022, 19.573628]], [[-70.302539, 19.596544], [-70.302639, 19.596499], [-70.301817, 19.596629], [-70.301828, 19.596637], [-70.302539, 19.596544]], [[-70.303511, 19.596211], [-70.303883, 19.596069], [-70.303887, 19.596055], [-70.303511, 19.596211]], [[-70.307524, 19.591113], [-70.307176, 19.590519], [-70.307162, 19.590516], [-70.307533, 19.591173], [-70.307524, 19.591113]], [[-70.307636, 19.592613], [-70.307654, 19.592511], [-70.307645, 19.5925], [-70.307567, 19.592691], [-70.307636, 19.592613]], [[-70.307773, 19.591818], [-70.307712, 19.591673], [-70.307733, 19.591984], [-70.307745, 19.591976], [-70.307773, 19.591818]], [[-70.316473, 19.613681], [-70.317199, 19.613091], [-70.31728, 19.61296], [-70.317266, 19.612959], [-70.316473, 19.613681]], [[-70.317605, 19.612469], [-70.317697, 19.612369], [-70.317766, 19.612091], [-70.317753, 19.612096], [-70.317605, 19.612469]], [[-70.318074, 19.610947], [-70.318182, 19.610635], [-70.318235, 19.610243], [-70.318223, 19.610251], [-70.318074, 19.610947]], [[-70.318453, 19.609181], [-70.318433, 19.609325], [-70.318571, 19.608979], [-70.318557, 19.608983], [-70.318453, 19.609181]], [[-70.319309, 19.608242], [-70.318944, 19.608556], [-70.318944, 19.60857], [-70.319427, 19.608198], [-70.319309, 19.608242]], [[-70.388243, 19.629087], [-70.388421, 19.628962], [-70.390926, 19.626445], [-70.390912, 19.626445], [-70.388243, 19.629087]]]}}, {"type": "Feature", "properties": {"COD_PROV": "09", "COD_MUN": "0904", "MUNICIPIO": "Jamao al Norte", "N_DM": 0, "AREA_KM2": 114.02}, "geometry": {"type": "Polygon", "coordinates": [[[-70.507458, 19.613617], [-70.506511, 19.614274], [-70.506201, 19.616067], [-70.505205, 19.616631], [-70.504607, 19.617144], [-70.503889, 19.61741], [-70.501987, 19.618723], [-70.500918, 19.619905], [-70.500508, 19.621826], [-70.500141, 19.628079], [-70.499641, 19.631511], [-70.49966, 19.633629], [-70.500003, 19.636145], [-70.500245, 19.639269], [-70.500159, 19.641487], [-70.499649, 19.643911], [-70.499558, 19.645524], [-70.500221, 19.648141], [-70.502326, 19.653193], [-70.502092, 19.659076], [-70.501836, 19.659213], [-70.500299, 19.660993], [-70.49895, 19.660906], [-70.497385, 19.660134], [-70.496561, 19.660337], [-70.495536, 19.661622], [-70.4944, 19.662221], [-70.493455, 19.662187], [-70.493364, 19.662131], [-70.494287, 19.661139], [-70.494384, 19.660355], [-70.493959, 19.659473], [-70.492296, 19.658801], [-70.48929, 19.658826], [-70.488041, 19.658149], [-70.487229, 19.658092], [-70.486907, 19.659101], [-70.486044, 19.660309], [-70.485478, 19.660563], [-70.484908, 19.660485], [-70.484336, 19.660034], [-70.482738, 19.657562], [-70.482079, 19.657193], [-70.481203, 19.656993], [-70.479938, 19.657502], [-70.477382, 19.660091], [-70.475771, 19.660891], [-70.474764, 19.660775], [-70.473184, 19.660125], [-70.472872, 19.659465], [-70.47326, 19.65884], [-70.47417, 19.658004], [-70.475215, 19.65758], [-70.475515, 19.656872], [-70.475334, 19.656462], [-70.474199, 19.656388], [-70.473974, 19.655645], [-70.47353, 19.655233], [-70.47279, 19.655281], [-70.471745, 19.655787], [-70.469955, 19.655926], [-70.469565, 19.656509], [-70.468914, 19.657094], [-70.468217, 19.657349], [-70.467343, 19.657399], [-70.466916, 19.658479], [-70.467139, 19.658974], [-70.468064, 19.659794], [-70.467851, 19.660417], [-70.465501, 19.660601], [-70.463644, 19.659499], [-70.463025, 19.658717], [-70.462845, 19.65818], [-70.46336, 19.657098], [-70.463706, 19.656721], [-70.463752, 19.655727], [-70.464653, 19.654739], [-70.464295, 19.654027], [-70.463154, 19.653661], [-70.462845, 19.653373], [-70.462274, 19.65313], [-70.460878, 19.653472], [-70.460089, 19.653313], [-70.459044, 19.653777], [-70.458434, 19.653906], [-70.457899, 19.654382], [-70.457678, 19.656092], [-70.457409, 19.656775], [-70.457375, 19.657849], [-70.457554, 19.658347], [-70.457997, 19.658923], [-70.459985, 19.660697], [-70.45994, 19.660777], [-70.460689, 19.661636], [-70.460869, 19.662132], [-70.460523, 19.662632], [-70.460176, 19.662883], [-70.458733, 19.662937], [-70.457908, 19.663647], [-70.457608, 19.664271], [-70.456167, 19.664573], [-70.455332, 19.663959], [-70.454717, 19.663839], [-70.454321, 19.663552], [-70.453994, 19.662966], [-70.452912, 19.662362], [-70.451901, 19.661956], [-70.451241, 19.661464], [-70.450189, 19.661224], [-70.449616, 19.66069], [-70.44926, 19.660071], [-70.449341, 19.659367], [-70.449165, 19.658958], [-70.448774, 19.658998], [-70.448512, 19.65958], [-70.447775, 19.660332], [-70.447182, 19.659948], [-70.447111, 19.660301], [-70.447233, 19.661143], [-70.446604, 19.661506], [-70.446564, 19.661792], [-70.446699, 19.662205], [-70.446618, 19.662993], [-70.445703, 19.663374], [-70.445054, 19.664165], [-70.444445, 19.66446], [-70.443877, 19.664506], [-70.442689, 19.663812], [-70.44199, 19.663817], [-70.441157, 19.663575], [-70.439913, 19.663828], [-70.438635, 19.664505], [-70.438045, 19.665359], [-70.436928, 19.667519], [-70.436335, 19.668034], [-70.435384, 19.668607], [-70.43443, 19.668899], [-70.433772, 19.668848], [-70.43293, 19.668288], [-70.433283, 19.667661], [-70.434118, 19.667371], [-70.435361, 19.666231], [-70.43553, 19.665321], [-70.434634, 19.664933], [-70.433487, 19.664979], [-70.431463, 19.664674], [-70.429654, 19.66299], [-70.428505, 19.661471], [-70.427419, 19.660401], [-70.42747, 19.659664], [-70.427111, 19.659328], [-70.426451, 19.659051], [-70.425667, 19.658265], [-70.425362, 19.657644], [-70.426073, 19.657293], [-70.425711, 19.656508], [-70.42493, 19.656118], [-70.424147, 19.655444], [-70.422467, 19.654721], [-70.421925, 19.654217], [-70.421031, 19.654563], [-70.419357, 19.654633], [-70.41858, 19.654526], [-70.418103, 19.654756], [-70.417565, 19.65476], [-70.417381, 19.654422], [-70.416662, 19.654087], [-70.4163, 19.653751], [-70.415823, 19.653641], [-70.415407, 19.654098], [-70.414934, 19.655153], [-70.41412, 19.654669], [-70.413344, 19.654748], [-70.412879, 19.655046], [-70.411172, 19.655501], [-70.40978, 19.656175], [-70.40948, 19.657138], [-70.41018, 19.657645], [-70.411507, 19.658224], [-70.412447, 19.659027], [-70.414323, 19.660117], [-70.414484, 19.660779], [-70.414022, 19.661298], [-70.413641, 19.662111], [-70.413023, 19.662632], [-70.412559, 19.662856], [-70.411706, 19.66301], [-70.411372, 19.663495], [-70.410955, 19.663754], [-70.410543, 19.663609], [-70.410304, 19.662875], [-70.40999, 19.662435], [-70.408735, 19.661266], [-70.408646, 19.660456], [-70.407715, 19.660243], [-70.405152, 19.660263], [-70.404516, 19.659789], [-70.403551, 19.658778], [-70.403245, 19.657987], [-70.403004, 19.656753], [-70.402503, 19.655393], [-70.402254, 19.654001], [-70.402809, 19.653157], [-70.403325, 19.653069], [-70.403707, 19.653212], [-70.403773, 19.652144], [-70.405801, 19.64673], [-70.406129, 19.644412], [-70.406671, 19.642085], [-70.407147, 19.638215], [-70.407777, 19.635509], [-70.407667, 19.635142], [-70.408027, 19.634503], [-70.408099, 19.633422], [-70.408783, 19.632075], [-70.408968, 19.631375], [-70.408871, 19.627777], [-70.408686, 19.62662], [-70.408874, 19.624407], [-70.407884, 19.620527], [-70.407564, 19.620786], [-70.406924, 19.620995], [-70.406537, 19.620783], [-70.405493, 19.619933], [-70.404954, 19.618872], [-70.404944, 19.618241], [-70.404222, 19.617734], [-70.403719, 19.617531], [-70.400919, 19.616886], [-70.400779, 19.616129], [-70.400449, 19.615639], [-70.400167, 19.615473], [-70.399837, 19.61546], [-70.398834, 19.616315], [-70.397438, 19.616401], [-70.39682, 19.616177], [-70.396426, 19.615865], [-70.39605, 19.615417], [-70.395605, 19.614581], [-70.395391, 19.613903], [-70.395213, 19.613812], [-70.394516, 19.614039], [-70.393402, 19.613673], [-70.391569, 19.612417], [-70.389762, 19.61256], [-70.389097, 19.612368], [-70.387649, 19.612197], [-70.386683, 19.611913], [-70.386078, 19.612128], [-70.38575, 19.612448], [-70.382757, 19.61083], [-70.380354, 19.609267], [-70.37887, 19.607887], [-70.377156, 19.605655], [-70.375753, 19.604195], [-70.371169, 19.60079], [-70.370874, 19.599683], [-70.370111, 19.598284], [-70.36704, 19.594569], [-70.366761, 19.593826], [-70.367251, 19.59117], [-70.367891, 19.59023], [-70.369747, 19.588217], [-70.371769, 19.587002], [-70.377148, 19.582464], [-70.37765, 19.581033], [-70.378436, 19.580175], [-70.380007, 19.577532], [-70.380502, 19.576498], [-70.381574, 19.57361], [-70.381957, 19.572959], [-70.382253, 19.572737], [-70.383435, 19.572443], [-70.384302, 19.573736], [-70.384386, 19.575232], [-70.384798, 19.576282], [-70.385784, 19.576948], [-70.386921, 19.577305], [-70.387602, 19.577668], [-70.389412, 19.577719], [-70.39016, 19.577533], [-70.391572, 19.576783], [-70.392322, 19.576529], [-70.393382, 19.575451], [-70.393837, 19.5752], [-70.394588, 19.575195], [-70.395836, 19.575928], [-70.397337, 19.57604], [-70.397825, 19.575974], [-70.40013, 19.574223], [-70.400991, 19.573708], [-70.401392, 19.573653], [-70.401941, 19.574099], [-70.401584, 19.574956], [-70.402257, 19.575684], [-70.402187, 19.576126], [-70.402046, 19.576295], [-70.402275, 19.576609], [-70.403271, 19.57705], [-70.402912, 19.577297], [-70.401817, 19.578532], [-70.401572, 19.579647], [-70.401826, 19.579929], [-70.402216, 19.579746], [-70.403335, 19.579732], [-70.404096, 19.580351], [-70.404356, 19.581306], [-70.405117, 19.582067], [-70.406079, 19.582541], [-70.407137, 19.582488], [-70.407493, 19.582917], [-70.407259, 19.585071], [-70.408222, 19.585974], [-70.40974, 19.58678], [-70.409644, 19.587355], [-70.408743, 19.588028], [-70.408899, 19.58865], [-70.409137, 19.588838], [-70.41223, 19.589351], [-70.412783, 19.589643], [-70.413086, 19.595898], [-70.413952, 19.59709], [-70.414317, 19.598524], [-70.416508, 19.601621], [-70.417326, 19.603195], [-70.418394, 19.60429], [-70.419456, 19.604715], [-70.422483, 19.604892], [-70.423539, 19.605155], [-70.42358, 19.605579], [-70.422641, 19.605753], [-70.422094, 19.606661], [-70.421906, 19.60815], [-70.42266, 19.608763], [-70.422961, 19.608669], [-70.423112, 19.608093], [-70.423714, 19.607612], [-70.424613, 19.606556], [-70.425118, 19.606554], [-70.425624, 19.606838], [-70.425529, 19.607604], [-70.425641, 19.608801], [-70.425944, 19.60913], [-70.426246, 19.609035], [-70.4267, 19.609081], [-70.427413, 19.60989], [-70.428169, 19.609934], [-70.429535, 19.610549], [-70.431204, 19.611115], [-70.432061, 19.611159], [-70.433674, 19.61096], [-70.435091, 19.611575], [-70.43669, 19.611849], [-70.437245, 19.611647], [-70.437346, 19.611073], [-70.43727, 19.61084], [-70.437053, 19.610637], [-70.437048, 19.610233], [-70.436455, 19.609284], [-70.435375, 19.609289], [-70.435047, 19.609105], [-70.43468, 19.60818], [-70.434903, 19.607559], [-70.435555, 19.607492], [-70.435789, 19.607762], [-70.436302, 19.607053], [-70.437606, 19.606733], [-70.437996, 19.60651], [-70.438054, 19.605922], [-70.437227, 19.604539], [-70.435839, 19.602693], [-70.435965, 19.602197], [-70.435731, 19.60158], [-70.435892, 19.60127], [-70.436802, 19.600984], [-70.436864, 19.600587], [-70.436208, 19.600122], [-70.436002, 19.598979], [-70.436521, 19.598603], [-70.437369, 19.598437], [-70.43693, 19.596775], [-70.436762, 19.596558], [-70.436404, 19.596407], [-70.435851, 19.596411], [-70.435299, 19.596973], [-70.434288, 19.597197], [-70.433795, 19.596768], [-70.433588, 19.595501], [-70.43407, 19.594693], [-70.434751, 19.594159], [-70.434959, 19.593126], [-70.435005, 19.592308], [-70.434562, 19.59181], [-70.434574, 19.591622], [-70.434293, 19.591396], [-70.433893, 19.59068], [-70.433884, 19.58972], [-70.434057, 19.588408], [-70.434042, 19.58675], [-70.434401, 19.585875], [-70.433435, 19.585126], [-70.43205, 19.584736], [-70.431653, 19.584418], [-70.431452, 19.583992], [-70.431588, 19.583537], [-70.432257, 19.582748], [-70.433375, 19.582429], [-70.433969, 19.580346], [-70.432689, 19.579513], [-70.432314, 19.578818], [-70.432301, 19.577334], [-70.432566, 19.576197], [-70.432217, 19.575434], [-70.432092, 19.57538], [-70.432535, 19.574168], [-70.433115, 19.573811], [-70.434944, 19.57388], [-70.435762, 19.573508], [-70.435807, 19.572977], [-70.435388, 19.572158], [-70.434643, 19.571378], [-70.434177, 19.570683], [-70.434169, 19.56981], [-70.434529, 19.568846], [-70.435168, 19.56823], [-70.435805, 19.567352], [-70.436741, 19.567433], [-70.438121, 19.567223], [-70.438882, 19.566975], [-70.439438, 19.566422], [-70.439844, 19.565739], [-70.44012, 19.564591], [-70.440467, 19.563936], [-70.441512, 19.563275], [-70.442718, 19.563073], [-70.442565, 19.560924], [-70.44265, 19.560137], [-70.44292, 19.559437], [-70.443653, 19.558994], [-70.445156, 19.558931], [-70.445808, 19.558605], [-70.447834, 19.558492], [-70.448223, 19.558376], [-70.448504, 19.558119], [-70.448611, 19.557718], [-70.448442, 19.557397], [-70.447121, 19.556442], [-70.446891, 19.555672], [-70.447103, 19.555304], [-70.447533, 19.554927], [-70.448013, 19.555262], [-70.449068, 19.554873], [-70.449465, 19.55425], [-70.449751, 19.55205], [-70.449879, 19.552022], [-70.450552, 19.553659], [-70.451817, 19.553342], [-70.453079, 19.552249], [-70.45337, 19.551844], [-70.454089, 19.5519], [-70.454525, 19.552888], [-70.45521, 19.553191], [-70.456023, 19.553369], [-70.456285, 19.553058], [-70.456218, 19.552656], [-70.4569, 19.55231], [-70.457652, 19.552397], [-70.458635, 19.552915], [-70.458771, 19.553163], [-70.459915, 19.553586], [-70.460601, 19.553673], [-70.461028, 19.553917], [-70.459403, 19.554549], [-70.459245, 19.555259], [-70.459508, 19.555477], [-70.460031, 19.555596], [-70.460648, 19.555437], [-70.461006, 19.555124], [-70.461527, 19.555058], [-70.461921, 19.555272], [-70.461763, 19.555799], [-70.461244, 19.556143], [-70.461084, 19.556389], [-70.461186, 19.556702], [-70.461446, 19.556823], [-70.462131, 19.556848], [-70.463369, 19.556529], [-70.464162, 19.557451], [-70.465174, 19.557785], [-70.465822, 19.557782], [-70.466152, 19.558012], [-70.467008, 19.557561], [-70.468029, 19.555982], [-70.468557, 19.554793], [-70.468994, 19.554831], [-70.470856, 19.555436], [-70.471547, 19.55543], [-70.472239, 19.55562], [-70.473065, 19.555261], [-70.473681, 19.554691], [-70.473671, 19.553451], [-70.472834, 19.552603], [-70.472759, 19.551884], [-70.47296, 19.551293], [-70.473777, 19.549976], [-70.474465, 19.549511], [-70.474874, 19.548985], [-70.475075, 19.548396], [-70.474864, 19.547937], [-70.474307, 19.547484], [-70.474233, 19.546895], [-70.474568, 19.545713], [-70.474629, 19.544862], [-70.474484, 19.544077], [-70.474468, 19.542309], [-70.474599, 19.541522], [-70.475475, 19.539157], [-70.476085, 19.537907], [-70.476149, 19.537318], [-70.475859, 19.535814], [-70.475853, 19.53516], [-70.475915, 19.534373], [-70.476118, 19.533848], [-70.476733, 19.533188], [-70.478087, 19.532789], [-70.479254, 19.532105], [-70.479641, 19.531681], [-70.479977, 19.531577], [-70.482284, 19.532276], [-70.482979, 19.532092], [-70.483486, 19.532208], [-70.483583, 19.532387], [-70.483869, 19.532474], [-70.484152, 19.532471], [-70.48456, 19.532139], [-70.484926, 19.532037], [-70.485276, 19.532149], [-70.485628, 19.532031], [-70.48599, 19.531796], [-70.48614, 19.531472], [-70.486788, 19.527647], [-70.486742, 19.527246], [-70.48557, 19.52644], [-70.485686, 19.526432], [-70.485787, 19.526114], [-70.485966, 19.525952], [-70.486798, 19.526187], [-70.48743, 19.526199], [-70.488167, 19.526542], [-70.488416, 19.526006], [-70.489249, 19.525693], [-70.490049, 19.525975], [-70.490381, 19.525891], [-70.49046, 19.525654], [-70.490161, 19.524959], [-70.490435, 19.524805], [-70.49149, 19.525959], [-70.492767, 19.526756], [-70.493092, 19.52717], [-70.493081, 19.527673], [-70.493465, 19.528451], [-70.494537, 19.529551], [-70.494786, 19.531437], [-70.494582, 19.532182], [-70.493815, 19.532889], [-70.493344, 19.53311], [-70.492707, 19.533154], [-70.492221, 19.533544], [-70.491938, 19.533549], [-70.488815, 19.536295], [-70.488036, 19.538315], [-70.487464, 19.54109], [-70.486921, 19.541926], [-70.487578, 19.542303], [-70.487841, 19.54279], [-70.487856, 19.543833], [-70.488433, 19.544009], [-70.489851, 19.543753], [-70.491722, 19.543737], [-70.492972, 19.546297], [-70.49337, 19.547456], [-70.494667, 19.547997], [-70.49493, 19.548545], [-70.495712, 19.549455], [-70.496752, 19.549456], [-70.496541, 19.549725], [-70.495542, 19.553658], [-70.493726, 19.557294], [-70.493198, 19.558954], [-70.489705, 19.566768], [-70.489079, 19.569065], [-70.488872, 19.570977], [-70.489005, 19.571962], [-70.488856, 19.573429], [-70.489337, 19.574607], [-70.489774, 19.576179], [-70.490278, 19.576839], [-70.490718, 19.578735], [-70.492719, 19.582562], [-70.493361, 19.583414], [-70.49387, 19.584424], [-70.494403, 19.585942], [-70.494662, 19.58726], [-70.495226, 19.588905], [-70.495632, 19.593801], [-70.496134, 19.595113], [-70.496322, 19.596129], [-70.496877, 19.597007], [-70.498582, 19.598827], [-70.499089, 19.599616], [-70.502071, 19.602591], [-70.502877, 19.603155], [-70.503896, 19.604483], [-70.504769, 19.605027], [-70.506168, 19.606481], [-70.506673, 19.607231], [-70.507217, 19.608776], [-70.507414, 19.609827], [-70.507415, 19.611589], [-70.507242, 19.612595], [-70.507458, 19.613617]]]}}]}