{"type": "FeatureCollection", "name": "toponimia_distritos_municipales_espaillat", "crs": {"type": "name", "properties": {"name": "urn:ogc:def:crs:OGC:1.3:CRS84"}}, "features": [{"type": "Feature", "properties": {"COD_DM": "090101", "NOMBRE": "Moca", "TIPO": "Cabecera municipal"}, "geometry": {"type": "Point", "coordinates": [-70.520048, 19.398752]}}, {"type": "Feature", "properties": {"COD_DM": "090102", "NOMBRE": "José Contreras", "TIPO": "Distrito municipal"}, "geometry": {"type": "Point", "coordinates": [-70.452482, 19.5344]}}, {"type": "Feature", "properties": {"COD_DM": "090103", "NOMBRE": "San Víctor", "TIPO": "Distrito municipal"}, "geometry": {"type": "Point", "coordinates": [-70.514651, 19.502195]}}, {"type": "Feature", "properties": {"COD_DM": "090104", "NOMBRE": "Juan López", "TIPO": "Distrito municipal"}, "geometry": {"type": "Point", "coordinates": [-70.492769, 19.44807]}}, {"type": "Feature", "properties": {"COD_DM": "090105", "NOMBRE": "Las Lagunas", "TIPO": "Distrito municipal"}, "geometry": {"type": "Point", "coordinates": [-70.457561, 19.429109]}}, {"type": "Feature", "properties": {"COD_DM": "090106", "NOMBRE": "Canca La Reyna", "TIPO": "Distrito municipal"}, "geometry": {"type": "Point", "coordinates": [-70.57396, 19.44338]}}, {"type": "Feature", "properties": {"COD_DM": "090107", "NOMBRE": "El Higüerito", "TIPO": "Distrito municipal"}, "geometry": {"type": "Point", "coordinates": [-70.581119, 19.36854]}}, {"type": "Feature", "properties": {"COD_DM": "090108", "NOMBRE": "Monte de La Jagua", "TIPO": "Distrito municipal"}, "geometry": {"type": "Point", "coordinates": [-70.567834, 19.403197]}}, {"type": "Feature", "properties": {"COD_DM": "090109", "NOMBRE": "La Ortega", "TIPO": "Distrito municipal"}, "geometry": {"type": "Point", "coordinates": [-70.603209, 19.375327]}}, {"type": "Feature", "properties": {"COD_DM": "090201", "NOMBRE": "Cayetano Germosén", "TIPO": "Cabecera municipal"}, "geometry": {"type": "Point", "coordinates": [-70.471734, 19.344267]}}, {"type": "Feature", "properties": {"COD_DM": "090301", "NOMBRE": "Gaspar Hernández", "TIPO": "Cabecera municipal"}, "geometry": {"type": "Point", "coordinates": [-70.337412, 19.585824]}}, {"type": "Feature", "properties": {"COD_DM": "090302", "NOMBRE": "Joba Arriba", "TIPO": "Distrito municipal"}, "geometry": {"type": "Point", "coordinates": [-70.250549, 19.557976]}}, {"type": "Feature", "properties": {"COD_DM": "090303", "NOMBRE": "Veragua", "TIPO": "Distrito municipal"}, "geometry": {"type": "Point", "coordinates": [-70.350409, 19.659031]}}, {"type": "Feature", "properties": {"COD_DM": "090304", "NOMBRE": "Villa Magante", "TIPO": "Distrito municipal"}, "geometry": {"type": "Point", "coordinates": [-70.150345, 19.593064]}}, {"type": "Feature", "properties": {"COD_DM": "090401", "NOMBRE": "Jamao al Norte", "TIPO": "Cabecera municipal"}, "geometry": {"type": "Point", "coordinates": [-70.466874, 19.596873]}}]}