{"type": "FeatureCollection", "name": "toponimia_municipios_espaillat", "crs": {"type": "name", "properties": {"name": "urn:ogc:def:crs:OGC:1.3:CRS84"}}, "features": [{"type": "Feature", "properties": {"COD_MUN": "0901", "MUNICIPIO": "Moca"}, "geometry": {"type": "Point", "coordinates": [-70.505362, 19.477958]}}, {"type": "Feature", "properties": {"COD_MUN": "0902", "MUNICIPIO": "Cayetano Germosén"}, "geometry": {"type": "Point", "coordinates": [-70.471734, 19.344269]}}, {"type": "Feature", "properties": {"COD_MUN": "0903", "MUNICIPIO": "Gaspar Hernández"}, "geometry": {"type": "Point", "coordinates": [-70.240804, 19.614238]}}, {"type": "Feature", "properties": {"COD_MUN": "0904", "MUNICIPIO": "Jamao al Norte"}, "geometry": {"type": "Point", "coordinates": [-70.466875, 19.596874]}}]}