{"type": "FeatureCollection", "name": "toponimia_regiones_salud_rd", "crs": {"type": "name", "properties": {"name": "urn:ogc:def:crs:OGC:1.3:CRS84"}}, "features": [{"type": "Feature", "properties": {"COD_REGION": "0", "REGION": "Región 0", "NOMBRE_REGION": "Metropolitana", "ETIQUETA": "Región 0\nMetropolitana"}, "geometry": {"type": "Point", "coordinates": [-69.84885419341488, 18.750884514599125]}}, {"type": "Feature", "properties": {"COD_REGION": "I", "REGION": "Región I", "NOMBRE_REGION": "Valdesia", "ETIQUETA": "Región I\nValdesia"}, "geometry": {"type": "Point", "coordinates": [-70.30428484451046, 18.50108867283366]}}, {"type": "Feature", "properties": {"COD_REGION": "II", "REGION": "Región II", "NOMBRE_REGION": "Norcentral", "ETIQUETA": "Región II\nNorcentral"}, "geometry": {"type": "Point", "coordinates": [-70.6658333991223, 19.476825253576166]}}, {"type": "Feature", "properties": {"COD_REGION": "III", "REGION": "Región III", "NOMBRE_REGION": "Nordeste", "ETIQUETA": "Región III\nNordeste"}, "geometry": {"type": "Point", "coordinates": [-70.12807675572839, 19.33826511115467]}}, {"type": "Feature", "properties": {"COD_REGION": "IV", "REGION": "Región IV", "NOMBRE_REGION": "Enriquillo", "ETIQUETA": "Región IV\nEnriquillo"}, "geometry": {"type": "Point", "coordinates": [-71.40469803303716, 18.143343171329857]}}, {"type": "Feature", "properties": {"COD_REGION": "V", "REGION": "Región V", "NOMBRE_REGION": "Este", "ETIQUETA": "Región V\nEste"}, "geometry": {"type": "Point", "coordinates": [-68.96638515454467, 18.65275596614165]}}, {"type": "Feature", "properties": {"COD_REGION": "VI", "REGION": "Región VI", "NOMBRE_REGION": "El Valle", "ETIQUETA": "Región VI\nEl Valle"}, "geometry": {"type": "Point", "coordinates": [-71.21233832213957, 18.766120782221755]}}, {"type": "Feature", "properties": {"COD_REGION": "VII", "REGION": "Región VII", "NOMBRE_REGION": "Cibao Occidental", "ETIQUETA": "Región VII\nCibao Occidental"}, "geometry": {"type": "Point", "coordinates": [-71.30380337884678, 19.5406919731099]}}, {"type": "Feature", "properties": {"COD_REGION": "VIII", "REGION": "Región VIII", "NOMBRE_REGION": "Cibao Central", "ETIQUETA": "Región VIII\nCibao Central"}, "geometry": {"type": "Point", "coordinates": [-70.42571019550496, 19.031337381984606]}}]}