{"type": "FeatureCollection", "name": "toponimia_provincias_rd", "crs": {"type": "name", "properties": {"name": "urn:ogc:def:crs:OGC:1.3:CRS84"}}, "features": [{"type": "Feature", "properties": {"COD_PROV": "01", "PROVINCIA": "DISTRITO NACIONAL", "NOMBRE": "Distrito Nacional", "N_MUNICIPIOS": 1}, "geometry": {"type": "Point", "coordinates": [-69.9297, 18.48477]}}, {"type": "Feature", "properties": {"COD_PROV": "02", "PROVINCIA": "AZUA", "NOMBRE": "Azua", "N_MUNICIPIOS": 10}, "geometry": {"type": "Point", "coordinates": [-70.90465, 18.62573]}}, {"type": "Feature", "properties": {"COD_PROV": "03", "PROVINCIA": "BAORUCO", "NOMBRE": "Baoruco", "N_MUNICIPIOS": 5}, "geometry": {"type": "Point", "coordinates": [-71.33085, 18.48946]}}, {"type": "Feature", "properties": {"COD_PROV": "04", "PROVINCIA": "BARAHONA", "NOMBRE": "Barahona", "N_MUNICIPIOS": 11}, "geometry": {"type": "Point", "coordinates": [-71.24765, 18.17469]}}, {"type": "Feature", "properties": {"COD_PROV": "05", "PROVINCIA": "DAJABÓN", "NOMBRE": "Dajabón", "N_MUNICIPIOS": 5}, "geometry": {"type": "Point", "coordinates": [-71.57131, 19.43762]}}, {"type": "Feature", "properties": {"COD_PROV": "06", "PROVINCIA": "DUARTE", "NOMBRE": "Duarte", "N_MUNICIPIOS": 7}, "geometry": {"type": "Point", "coordinates": [-70.188, 19.28335]}}, {"type": "Feature", "properties": {"COD_PROV": "07", "PROVINCIA": "ELÍAS PIÑA", "NOMBRE": "Elías Piña", "N_MUNICIPIOS": 6}, "geometry": {"type": "Point", "coordinates": [-71.72489, 18.96848]}}, {"type": "Feature", "properties": {"COD_PROV": "08", "PROVINCIA": "EL SEIBO", "NOMBRE": "El Seibo", "N_MUNICIPIOS": 2}, "geometry": {"type": "Point", "coordinates": [-69.01968, 18.78542]}}, {"type": "Feature", "properties": {"COD_PROV": "09", "PROVINCIA": "ESPAILLAT", "NOMBRE": "Espaillat", "N_MUNICIPIOS": 4}, "geometry": {"type": "Point", "coordinates": [-70.49184, 19.51098]}}, {"type": "Feature", "properties": {"COD_PROV": "10", "PROVINCIA": "INDEPENDENCIA", "NOMBRE": "Independencia", "N_MUNICIPIOS": 6}, "geometry": {"type": "Point", "coordinates": [-71.73078, 18.41408]}}, {"type": "Feature", "properties": {"COD_PROV": "11", "PROVINCIA": "LA ALTAGRACIA", "NOMBRE": "La Altagracia", "N_MUNICIPIOS": 2}, "geometry": {"type": "Point", "coordinates": [-68.6053, 18.58821]}}, {"type": "Feature", "properties": {"COD_PROV": "12", "PROVINCIA": "LA ROMANA", "NOMBRE": "La Romana", "N_MUNICIPIOS": 3}, "geometry": {"type": "Point", "coordinates": [-68.96671, 18.52514]}}, {"type": "Feature", "properties": {"COD_PROV": "13", "PROVINCIA": "LA VEGA", "NOMBRE": "La Vega", "N_MUNICIPIOS": 4}, "geometry": {"type": "Point", "coordinates": [-70.72742, 19.03115]}}, {"type": "Feature", "properties": {"COD_PROV": "14", "PROVINCIA": "MARÍA TRINIDAD SÁNCHEZ", "NOMBRE": "María Trinidad Sánchez", "N_MUNICIPIOS": 4}, "geometry": {"type": "Point", "coordinates": [-69.99868, 19.44251]}}, {"type": "Feature", "properties": {"COD_PROV": "15", "PROVINCIA": "MONTE CRISTI", "NOMBRE": "Monte Cristi", "N_MUNICIPIOS": 6}, "geometry": {"type": "Point", "coordinates": [-71.44502, 19.71783]}}, {"type": "Feature", "properties": {"COD_PROV": "16", "PROVINCIA": "PEDERNALES", "NOMBRE": "Pedernales", "N_MUNICIPIOS": 2}, "geometry": {"type": "Point", "coordinates": [-71.52519, 17.94326]}}, {"type": "Feature", "properties": {"COD_PROV": "17", "PROVINCIA": "PERAVIA", "NOMBRE": "Peravia", "N_MUNICIPIOS": 2}, "geometry": {"type": "Point", "coordinates": [-70.36954, 18.35109]}}, {"type": "Feature", "properties": {"COD_PROV": "18", "PROVINCIA": "PUERTO PLATA", "NOMBRE": "Puerto Plata", "N_MUNICIPIOS": 9}, "geometry": {"type": "Point", "coordinates": [-70.72051, 19.72214]}}, {"type": "Feature", "properties": {"COD_PROV": "19", "PROVINCIA": "HERMANAS MIRABAL", "NOMBRE": "Hermanas Mirabal", "N_MUNICIPIOS": 3}, "geometry": {"type": "Point", "coordinates": [-70.38406, 19.39577]}}, {"type": "Feature", "properties": {"COD_PROV": "20", "PROVINCIA": "SAMANÁ", "NOMBRE": "Samaná", "N_MUNICIPIOS": 3}, "geometry": {"type": "Point", "coordinates": [-69.65106, 19.17807]}}, {"type": "Feature", "properties": {"COD_PROV": "21", "PROVINCIA": "SAN CRISTÓBAL", "NOMBRE": "San Cristóbal", "N_MUNICIPIOS": 8}, "geometry": {"type": "Point", "coordinates": [-70.21452, 18.51745]}}, {"type": "Feature", "properties": {"COD_PROV": "22", "PROVINCIA": "SAN JUAN", "NOMBRE": "San Juan", "N_MUNICIPIOS": 6}, "geometry": {"type": "Point", "coordinates": [-71.30765, 18.88323]}}, {"type": "Feature", "properties": {"COD_PROV": "23", "PROVINCIA": "SAN PEDRO DE MACORÍS", "NOMBRE": "San Pedro de Macorís", "N_MUNICIPIOS": 6}, "geometry": {"type": "Point", "coordinates": [-69.48872, 18.60745]}}, {"type": "Feature", "properties": {"COD_PROV": "24", "PROVINCIA": "SÁNCHEZ RAMÍREZ", "NOMBRE": "Sánchez Ramírez", "N_MUNICIPIOS": 4}, "geometry": {"type": "Point", "coordinates": [-70.14888, 19.00375]}}, {"type": "Feature", "properties": {"COD_PROV": "25", "PROVINCIA": "SANTIAGO", "NOMBRE": "Santiago", "N_MUNICIPIOS": 9}, "geometry": {"type": "Point", "coordinates": [-70.95213, 19.33639]}}, {"type": "Feature", "properties": {"COD_PROV": "26", "PROVINCIA": "SANTIAGO RODRÍGUEZ", "NOMBRE": "Santiago Rodríguez", "N_MUNICIPIOS": 3}, "geometry": {"type": "Point", "coordinates": [-71.35238, 19.36907]}}, {"type": "Feature", "properties": {"COD_PROV": "27", "PROVINCIA": "VALVERDE", "NOMBRE": "Valverde", "N_MUNICIPIOS": 3}, "geometry": {"type": "Point", "coordinates": [-71.0304, 19.59557]}}, {"type": "Feature", "properties": {"COD_PROV": "28", "PROVINCIA": "MONSEÑOR NOUEL", "NOMBRE": "Monseñor Nouel", "N_MUNICIPIOS": 3}, "geometry": {"type": "Point", "coordinates": [-70.41573, 18.92348]}}, {"type": "Feature", "properties": {"COD_PROV": "29", "PROVINCIA": "MONTE PLATA", "NOMBRE": "Monte Plata", "N_MUNICIPIOS": 5}, "geometry": {"type": "Point", "coordinates": [-69.8366, 18.83819]}}, {"type": "Feature", "properties": {"COD_PROV": "30", "PROVINCIA": "HATO MAYOR", "NOMBRE": "Hato Mayor", "N_MUNICIPIOS": 3}, "geometry": {"type": "Point", "coordinates": [-69.34784, 18.81501]}}, {"type": "Feature", "properties": {"COD_PROV": "31", "PROVINCIA": "SAN JOSÉ DE OCOA", "NOMBRE": "San José de Ocoa", "N_MUNICIPIOS": 3}, "geometry": {"type": "Point", "coordinates": [-70.51418, 18.60853]}}, {"type": "Feature", "properties": {"COD_PROV": "32", "PROVINCIA": "SANTO DOMINGO", "NOMBRE": "Santo Domingo", "N_MUNICIPIOS": 7}, "geometry": {"type": "Point", "coordinates": [-69.85601, 18.5647]}}]}